{
"type": "FeatureCollection",
"name": "Wisconsin_Hospitals",
"crs": { "type": "name", "properties": { "name": "urn:ogc:def:crs:OGC:1.3:CRS84" } },
"features": [
{ "type": "Feature", "properties": { "OBJECTID": 1, "FACILITY_INTERNAL_ID": 1987, "ADDRESS": "2323 N Lake Dr", "ADDRESS_2": null, "CITY": "Milwaukee", "STATE": "WI", "ZIP": 53211, "ZIP_4": 4508, "LAT": 43.061537, "LON": -87.879873, "STATE_FIPS": 55, "COUNTY": "Milwaukee", "COUNTY_FIPS": 55079, "TYPE_DESC": "HOSPITAL", "SUB_TYPE_DESC": "SHORT TERM", "WI_LICENSE_NUM": 53, "ASPEN_FACILITY_ID": "HSPLACU113", "MEDICARE_ID": "520051", "TYPE_CODE": "1", "FACILITY_TYPE_CODE": "11", "FACILITY_NAME": "ASCENSION COLUMBIA ST MARY'S HOSPITAL MILWAUKEE" }, "geometry": { "type": "Point", "coordinates": [ -87.879873, 43.061537 ] } },
{ "type": "Feature", "properties": { "OBJECTID": 2, "FACILITY_INTERNAL_ID": 2027, "ADDRESS": "507 S Main St", "ADDRESS_2": null, "CITY": "Viroqua", "STATE": "WI", "ZIP": 54665, "ZIP_4": 2059, "LAT": 43.551547, "LON": -90.888045, "STATE_FIPS": 55, "COUNTY": "Vernon", "COUNTY_FIPS": 55123, "TYPE_DESC": "HOSPITAL", "SUB_TYPE_DESC": "CRITICAL ACCESS HOSPITALS", "WI_LICENSE_NUM": 1053, "ASPEN_FACILITY_ID": "HSPLACU130", "MEDICARE_ID": "521348", "TYPE_CODE": "1", "FACILITY_TYPE_CODE": "14", "FACILITY_NAME": "VERNON MEMORIAL HOSPITAL" }, "geometry": { "type": "Point", "coordinates": [ -90.888045, 43.551547 ] } },
{ "type": "Feature", "properties": { "OBJECTID": 3, "FACILITY_INTERNAL_ID": 2293, "ADDRESS": "8901 W Lincoln Ave", "ADDRESS_2": null, "CITY": "West Allis", "STATE": "WI", "ZIP": 53227, "ZIP_4": 2409, "LAT": 43.00114, "LON": -88.02422, "STATE_FIPS": 55, "COUNTY": "Milwaukee", "COUNTY_FIPS": 55079, "TYPE_DESC": "HOSPITAL", "SUB_TYPE_DESC": "SHORT TERM", "WI_LICENSE_NUM": 149, "ASPEN_FACILITY_ID": "HSPLACU136", "MEDICARE_ID": "520139", "TYPE_CODE": "1", "FACILITY_TYPE_CODE": "11", "FACILITY_NAME": "AURORA WEST ALLIS MEDICAL CENTER" }, "geometry": { "type": "Point", "coordinates": [ -88.02422, 43.00114 ] } },
{ "type": "Feature", "properties": { "OBJECTID": 4, "FACILITY_INTERNAL_ID": 2437, "ADDRESS": "3100 Superior Ave", "ADDRESS_2": null, "CITY": "Sheboygan", "STATE": "WI", "ZIP": 53081, "ZIP_4": 1948, "LAT": 43.762764, "LON": -87.747466, "STATE_FIPS": 55, "COUNTY": "Sheboygan", "COUNTY_FIPS": 55117, "TYPE_DESC": "HOSPITAL", "SUB_TYPE_DESC": "SHORT TERM", "WI_LICENSE_NUM": 37, "ASPEN_FACILITY_ID": "HSPLACU120", "MEDICARE_ID": "520044", "TYPE_CODE": "1", "FACILITY_TYPE_CODE": "11", "FACILITY_NAME": "ST NICHOLAS HOSPITAL" }, "geometry": { "type": "Point", "coordinates": [ -87.747466, 43.762764 ] } },
{ "type": "Feature", "properties": { "OBJECTID": 5, "FACILITY_INTERNAL_ID": 2438, "ADDRESS": "611 N Saint Joseph Ave", "ADDRESS_2": null, "CITY": "Marshfield", "STATE": "WI", "ZIP": 54449, "ZIP_4": 1832, "LAT": 44.678031, "LON": -90.179048, "STATE_FIPS": 55, "COUNTY": "Wood", "COUNTY_FIPS": 55141, "TYPE_DESC": "HOSPITAL", "SUB_TYPE_DESC": "SHORT TERM", "WI_LICENSE_NUM": 51, "ASPEN_FACILITY_ID": "HSPLACU102", "MEDICARE_ID": "520037", "TYPE_CODE": "1", "FACILITY_TYPE_CODE": "11", "FACILITY_NAME": "MARSHFIELD MEDICAL CENTER" }, "geometry": { "type": "Point", "coordinates": [ -90.179048, 44.678031 ] } },
{ "type": "Feature", "properties": { "OBJECTID": 6, "FACILITY_INTERNAL_ID": 2440, "ADDRESS": "2600 65th Ave", "ADDRESS_2": null, "CITY": "Osceola", "STATE": "WI", "ZIP": 54020, "ZIP_4": 4370, "LAT": 45.301919, "LON": -92.700151, "STATE_FIPS": 55, "COUNTY": "Polk", "COUNTY_FIPS": 55095, "TYPE_DESC": "HOSPITAL", "SUB_TYPE_DESC": "CRITICAL ACCESS HOSPITALS", "WI_LICENSE_NUM": 1021, "ASPEN_FACILITY_ID": "HSPLACU50", "MEDICARE_ID": "521318", "TYPE_CODE": "1", "FACILITY_TYPE_CODE": "14", "FACILITY_NAME": "LADD MEMORIAL HOSPITAL" }, "geometry": { "type": "Point", "coordinates": [ -92.700151, 45.301919 ] } },
{ "type": "Feature", "properties": { "OBJECTID": 7, "FACILITY_INTERNAL_ID": 2441, "ADDRESS": "1000 Mineral Point Ave", "ADDRESS_2": null, "CITY": "Janesville", "STATE": "WI", "ZIP": 53548, "ZIP_4": 2940, "LAT": 42.687418, "LON": -89.03337, "STATE_FIPS": 55, "COUNTY": "Rock", "COUNTY_FIPS": 55105, "TYPE_DESC": "HOSPITAL", "SUB_TYPE_DESC": "SHORT TERM", "WI_LICENSE_NUM": 162, "ASPEN_FACILITY_ID": "HSPLACU64", "MEDICARE_ID": "520066", "TYPE_CODE": "1", "FACILITY_TYPE_CODE": "11", "FACILITY_NAME": "MERCY HEALTH SYSTEM CORP" }, "geometry": { "type": "Point", "coordinates": [ -89.03337, 42.687418 ] } },
{ "type": "Feature", "properties": { "OBJECTID": 8, "FACILITY_INTERNAL_ID": 2719, "ADDRESS": "5000 Memorial Dr", "ADDRESS_2": null, "CITY": "Two Rivers", "STATE": "WI", "ZIP": 54241, "ZIP_4": 3900, "LAT": 44.126545, "LON": -87.616758, "STATE_FIPS": 55, "COUNTY": "Manitowoc", "COUNTY_FIPS": 55071, "TYPE_DESC": "HOSPITAL", "SUB_TYPE_DESC": "SHORT TERM", "WI_LICENSE_NUM": 85, "ASPEN_FACILITY_ID": "HSPLACU126", "MEDICARE_ID": "520034", "TYPE_CODE": "1", "FACILITY_TYPE_CODE": "11", "FACILITY_NAME": "AURORA MEDICAL CTR MANITOWOC COUNTY" }, "geometry": { "type": "Point", "coordinates": [ -87.616758, 44.126545 ] } },
{ "type": "Feature", "properties": { "OBJECTID": 9, "FACILITY_INTERNAL_ID": 3065, "ADDRESS": "402 W Lake St", "ADDRESS_2": null, "CITY": "Friendship", "STATE": "WI", "ZIP": 53934, "ZIP_4": 9699, "LAT": 43.974599, "LON": -89.821335, "STATE_FIPS": 55, "COUNTY": "Adams", "COUNTY_FIPS": 55001, "TYPE_DESC": "HOSPITAL", "SUB_TYPE_DESC": "CRITICAL ACCESS HOSPITALS", "WI_LICENSE_NUM": 1014, "ASPEN_FACILITY_ID": "HSPLACU1", "MEDICARE_ID": "521309", "TYPE_CODE": "1", "FACILITY_TYPE_CODE": "14", "FACILITY_NAME": "MOUNDVIEW MEMORIAL HOSPITAL AND CLINICS" }, "geometry": { "type": "Point", "coordinates": [ -89.821335, 43.974599 ] } },
{ "type": "Feature", "properties": { "OBJECTID": 10, "FACILITY_INTERNAL_ID": 3067, "ADDRESS": "1818 N Meade St", "ADDRESS_2": null, "CITY": "Appleton", "STATE": "WI", "ZIP": 54911, "ZIP_4": 3454, "LAT": 44.27856, "LON": -88.393659, "STATE_FIPS": 55, "COUNTY": "Outagamie", "COUNTY_FIPS": 55087, "TYPE_DESC": "HOSPITAL", "SUB_TYPE_DESC": "SHORT TERM", "WI_LICENSE_NUM": 169, "ASPEN_FACILITY_ID": "HSPLACU3", "MEDICARE_ID": "520160", "TYPE_CODE": "1", "FACILITY_TYPE_CODE": "11", "FACILITY_NAME": "THEDACARE REGIONAL MEDICAL CENTER - APPLETON INC" }, "geometry": { "type": "Point", "coordinates": [ -88.393659, 44.27856 ] } },
{ "type": "Feature", "properties": { "OBJECTID": 11, "FACILITY_INTERNAL_ID": 3070, "ADDRESS": "10400 75th St", "ADDRESS_2": null, "CITY": "Kenosha", "STATE": "WI", "ZIP": 53142, "ZIP_4": 7884, "LAT": 42.56986, "LON": -87.9352, "STATE_FIPS": 55, "COUNTY": "Kenosha", "COUNTY_FIPS": 55059, "TYPE_DESC": "HOSPITAL", "SUB_TYPE_DESC": "SHORT TERM", "WI_LICENSE_NUM": 1001, "ASPEN_FACILITY_ID": "HSPLACU6", "MEDICARE_ID": "520189", "TYPE_CODE": "1", "FACILITY_TYPE_CODE": "11", "FACILITY_NAME": "AURORA MEDICAL CTR KENOSHA" }, "geometry": { "type": "Point", "coordinates": [ -87.9352, 42.56986 ] } },
{ "type": "Feature", "properties": { "OBJECTID": 12, "FACILITY_INTERNAL_ID": 3071, "ADDRESS": "1100 Bergslien St", "ADDRESS_2": null, "CITY": "Baldwin", "STATE": "WI", "ZIP": 54002, "ZIP_4": 2600, "LAT": 44.941338, "LON": -92.378701, "STATE_FIPS": 55, "COUNTY": "Saint Croix", "COUNTY_FIPS": 55109, "TYPE_DESC": "HOSPITAL", "SUB_TYPE_DESC": "CRITICAL ACCESS HOSPITALS", "WI_LICENSE_NUM": 1052, "ASPEN_FACILITY_ID": "HSPLACU7", "MEDICARE_ID": "521347", "TYPE_CODE": "1", "FACILITY_TYPE_CODE": "14", "FACILITY_NAME": "WESTERN WISCONSIN HEALTH" }, "geometry": { "type": "Point", "coordinates": [ -92.378701, 44.941338 ] } },
{ "type": "Feature", "properties": { "OBJECTID": 13, "FACILITY_INTERNAL_ID": 3072, "ADDRESS": "1222 E Woodland Ave", "ADDRESS_2": null, "CITY": "Barron", "STATE": "WI", "ZIP": 54812, "ZIP_4": 1765, "LAT": 45.397383, "LON": -91.840476, "STATE_FIPS": 55, "COUNTY": "Barron", "COUNTY_FIPS": 55005, "TYPE_DESC": "HOSPITAL", "SUB_TYPE_DESC": "CRITICAL ACCESS HOSPITALS", "WI_LICENSE_NUM": 1018, "ASPEN_FACILITY_ID": "HSPLACU8", "MEDICARE_ID": "521315", "TYPE_CODE": "1", "FACILITY_TYPE_CODE": "14", "FACILITY_NAME": "MAYO CLINIC HEALTH SYSTEM-NORTHLAND" }, "geometry": { "type": "Point", "coordinates": [ -91.840476, 45.397383 ] } },
{ "type": "Feature", "properties": { "OBJECTID": 14, "FACILITY_INTERNAL_ID": 3073, "ADDRESS": "3003 University Dr", "ADDRESS_2": null, "CITY": "Marinette", "STATE": "WI", "ZIP": 54143, "ZIP_4": 4110, "LAT": 45.07077, "LON": -87.64736, "STATE_FIPS": 55, "COUNTY": "Marinette", "COUNTY_FIPS": 55075, "TYPE_DESC": "HOSPITAL", "SUB_TYPE_DESC": "SHORT TERM", "WI_LICENSE_NUM": 155, "ASPEN_FACILITY_ID": "HSPLACU9", "MEDICARE_ID": "520113", "TYPE_CODE": "1", "FACILITY_TYPE_CODE": "11", "FACILITY_NAME": "BAY AREA MEDICAL CENTER" }, "geometry": { "type": "Point", "coordinates": [ -87.64736, 45.07077 ] } },
{ "type": "Feature", "properties": { "OBJECTID": 15, "FACILITY_INTERNAL_ID": 3074, "ADDRESS": "707 S University Ave", "ADDRESS_2": null, "CITY": "Beaver Dam", "STATE": "WI", "ZIP": 53916, "ZIP_4": 3027, "LAT": 43.448812, "LON": -88.825848, "STATE_FIPS": 55, "COUNTY": "Dodge", "COUNTY_FIPS": 55027, "TYPE_DESC": "HOSPITAL", "SUB_TYPE_DESC": "SHORT TERM", "WI_LICENSE_NUM": 199, "ASPEN_FACILITY_ID": "HSPLACU10", "MEDICARE_ID": "520076", "TYPE_CODE": "1", "FACILITY_TYPE_CODE": "11", "FACILITY_NAME": "BEAVER DAM COMMUNITY HOSPITAL" }, "geometry": { "type": "Point", "coordinates": [ -88.825848, 43.448812 ] } },
{ "type": "Feature", "properties": { "OBJECTID": 16, "FACILITY_INTERNAL_ID": 3075, "ADDRESS": "744 S Webster Ave", "ADDRESS_2": null, "CITY": "Green Bay", "STATE": "WI", "ZIP": 54305, "ZIP_4": 3505, "LAT": 44.502263, "LON": -88.011254, "STATE_FIPS": 55, "COUNTY": "Brown", "COUNTY_FIPS": 55009, "TYPE_DESC": "HOSPITAL", "SUB_TYPE_DESC": "SHORT TERM", "WI_LICENSE_NUM": 147, "ASPEN_FACILITY_ID": "HSPLACU11", "MEDICARE_ID": "520049", "TYPE_CODE": "1", "FACILITY_TYPE_CODE": "11", "FACILITY_NAME": "BELLIN MEMORIAL HOSPITAL" }, "geometry": { "type": "Point", "coordinates": [ -88.011254, 44.502263 ] } },
{ "type": "Feature", "properties": { "OBJECTID": 17, "FACILITY_INTERNAL_ID": 3076, "ADDRESS": "1969 W Hart Rd", "ADDRESS_2": null, "CITY": "Beloit", "STATE": "WI", "ZIP": 53511, "ZIP_4": 2230, "LAT": 42.548266, "LON": -89.008459, "STATE_FIPS": 55, "COUNTY": "Rock", "COUNTY_FIPS": 55105, "TYPE_DESC": "HOSPITAL", "SUB_TYPE_DESC": "SHORT TERM", "WI_LICENSE_NUM": 67, "ASPEN_FACILITY_ID": "HSPLACU12", "MEDICARE_ID": "520100", "TYPE_CODE": "1", "FACILITY_TYPE_CODE": "11", "FACILITY_NAME": "BELOIT MEMORIAL HOSPITAL" }, "geometry": { "type": "Point", "coordinates": [ -89.008459, 42.548266 ] } },
{ "type": "Feature", "properties": { "OBJECTID": 18, "FACILITY_INTERNAL_ID": 3078, "ADDRESS": "711 W Adams St", "ADDRESS_2": null, "CITY": "Black River Falls", "STATE": "WI", "ZIP": 54615, "ZIP_4": 2200, "LAT": 44.303172, "LON": -90.85506, "STATE_FIPS": 55, "COUNTY": "Jackson", "COUNTY_FIPS": 55053, "TYPE_DESC": "HOSPITAL", "SUB_TYPE_DESC": "CRITICAL ACCESS HOSPITALS", "WI_LICENSE_NUM": 1037, "ASPEN_FACILITY_ID": "HSPLACU14", "MEDICARE_ID": "521333", "TYPE_CODE": "1", "FACILITY_TYPE_CODE": "14", "FACILITY_NAME": "BLACK RIVER MEMORIAL HOSPITAL" }, "geometry": { "type": "Point", "coordinates": [ -90.85506, 44.303172 ] } },
{ "type": "Feature", "properties": { "OBJECTID": 19, "FACILITY_INTERNAL_ID": 3079, "ADDRESS": "1501 Thompson St", "ADDRESS_2": null, "CITY": "Bloomer", "STATE": "WI", "ZIP": 54724, "ZIP_4": 1257, "LAT": 45.101904, "LON": -91.501751, "STATE_FIPS": 55, "COUNTY": "Chippewa", "COUNTY_FIPS": 55017, "TYPE_DESC": "HOSPITAL", "SUB_TYPE_DESC": "CRITICAL ACCESS HOSPITALS", "WI_LICENSE_NUM": 1017, "ASPEN_FACILITY_ID": "HSPLACU15", "MEDICARE_ID": "521314", "TYPE_CODE": "1", "FACILITY_TYPE_CODE": "14", "FACILITY_NAME": "MAYO CLINIC HEALTH SYSTEM-CHIPPEWA VALLEY" }, "geometry": { "type": "Point", "coordinates": [ -91.501751, 45.101904 ] } },
{ "type": "Feature", "properties": { "OBJECTID": 20, "FACILITY_INTERNAL_ID": 3080, "ADDRESS": "205 Parker St", "ADDRESS_2": null, "CITY": "Boscobel", "STATE": "WI", "ZIP": 53805, "ZIP_4": 1642, "LAT": 43.13337, "LON": -90.70818, "STATE_FIPS": 55, "COUNTY": "Grant", "COUNTY_FIPS": 55043, "TYPE_DESC": "HOSPITAL", "SUB_TYPE_DESC": "CRITICAL ACCESS HOSPITALS", "WI_LICENSE_NUM": 1048, "ASPEN_FACILITY_ID": "HSPLACU16", "MEDICARE_ID": "521344", "TYPE_CODE": "1", "FACILITY_TYPE_CODE": "14", "FACILITY_NAME": "GUNDERSEN BOSCOBEL AREA HOSPITAL AND CLINICS" }, "geometry": { "type": "Point", "coordinates": [ -90.70818, 43.13337 ] } },
{ "type": "Feature", "properties": { "OBJECTID": 21, "FACILITY_INTERNAL_ID": 3081, "ADDRESS": "257 W Saint George Ave", "ADDRESS_2": null, "CITY": "Grantsburg", "STATE": "WI", "ZIP": 54840, "ZIP_4": 7827, "LAT": 45.774397, "LON": -92.686767, "STATE_FIPS": 55, "COUNTY": "Burnett", "COUNTY_FIPS": 55013, "TYPE_DESC": "HOSPITAL", "SUB_TYPE_DESC": "CRITICAL ACCESS HOSPITALS", "WI_LICENSE_NUM": 1034, "ASPEN_FACILITY_ID": "HSPLACU17", "MEDICARE_ID": "521331", "TYPE_CODE": "1", "FACILITY_TYPE_CODE": "14", "FACILITY_NAME": "BURNETT MEDICAL CENTER" }, "geometry": { "type": "Point", "coordinates": [ -92.686767, 45.774397 ] } },
{ "type": "Feature", "properties": { "OBJECTID": 22, "FACILITY_INTERNAL_ID": 3165, "ADDRESS": "240 Maple St", "ADDRESS_2": null, "CITY": "Woodruff", "STATE": "WI", "ZIP": 54568, "ZIP_4": 9190, "LAT": 45.893471, "LON": -89.702188, "STATE_FIPS": 55, "COUNTY": "Oneida", "COUNTY_FIPS": 55085, "TYPE_DESC": "HOSPITAL", "SUB_TYPE_DESC": "SHORT TERM", "WI_LICENSE_NUM": 201, "ASPEN_FACILITY_ID": "HSPLACU45", "MEDICARE_ID": "520091", "TYPE_CODE": "1", "FACILITY_TYPE_CODE": "11", "FACILITY_NAME": "HOWARD YOUNG MEDICAL CTR" }, "geometry": { "type": "Point", "coordinates": [ -89.702188, 45.893471 ] } },
{ "type": "Feature", "properties": { "OBJECTID": 23, "FACILITY_INTERNAL_ID": 3166, "ADDRESS": "216 Sunset Pl", "ADDRESS_2": null, "CITY": "Neillsville", "STATE": "WI", "ZIP": 54456, "ZIP_4": 1706, "LAT": 44.557823, "LON": -90.607727, "STATE_FIPS": 55, "COUNTY": "Clark", "COUNTY_FIPS": 55019, "TYPE_DESC": "HOSPITAL", "SUB_TYPE_DESC": "CRITICAL ACCESS HOSPITALS", "WI_LICENSE_NUM": 1026, "ASPEN_FACILITY_ID": "HSPLACU62", "MEDICARE_ID": "521323", "TYPE_CODE": "1", "FACILITY_TYPE_CODE": "14", "FACILITY_NAME": "MARSHFIELD MEDICAL CENTER - NEILLSVILLE" }, "geometry": { "type": "Point", "coordinates": [ -90.607727, 44.557823 ] } },
{ "type": "Feature", "properties": { "OBJECTID": 24, "FACILITY_INTERNAL_ID": 3496, "ADDRESS": "3237 S 16th St", "ADDRESS_2": null, "CITY": "Milwaukee", "STATE": "WI", "ZIP": 53215, "ZIP_4": 4526, "LAT": 42.98566, "LON": -87.93582, "STATE_FIPS": 55, "COUNTY": "Milwaukee", "COUNTY_FIPS": 55079, "TYPE_DESC": "HOSPITAL", "SUB_TYPE_DESC": "SHORT TERM", "WI_LICENSE_NUM": 75, "ASPEN_FACILITY_ID": "HSPLACU98", "MEDICARE_ID": "520078", "TYPE_CODE": "1", "FACILITY_TYPE_CODE": "11", "FACILITY_NAME": "ASCENSION ST FRANCIS HOSPITAL" }, "geometry": { "type": "Point", "coordinates": [ -87.93582, 42.98566 ] } },
{ "type": "Feature", "properties": { "OBJECTID": 25, "FACILITY_INTERNAL_ID": 3497, "ADDRESS": "2817 New Pinery Rd", "ADDRESS_2": null, "CITY": "Portage", "STATE": "WI", "ZIP": 53901, "ZIP_4": 9240, "LAT": 43.566801, "LON": -89.466666, "STATE_FIPS": 55, "COUNTY": "Columbia", "COUNTY_FIPS": 55021, "TYPE_DESC": "HOSPITAL", "SUB_TYPE_DESC": "SHORT TERM", "WI_LICENSE_NUM": 80, "ASPEN_FACILITY_ID": "HSPLACU27", "MEDICARE_ID": "520041", "TYPE_CODE": "1", "FACILITY_TYPE_CODE": "11", "FACILITY_NAME": "DIVINE SAVIOR HEALTHCARE" }, "geometry": { "type": "Point", "coordinates": [ -89.466666, 43.566801 ] } },
{ "type": "Feature", "properties": { "OBJECTID": 26, "FACILITY_INTERNAL_ID": 3535, "ADDRESS": "800 Riverside Dr", "ADDRESS_2": null, "CITY": "Waupaca", "STATE": "WI", "ZIP": 54981, "ZIP_4": 1943, "LAT": 44.345624, "LON": -89.076742, "STATE_FIPS": 55, "COUNTY": "Waupaca", "COUNTY_FIPS": 55135, "TYPE_DESC": "HOSPITAL", "SUB_TYPE_DESC": "CRITICAL ACCESS HOSPITALS", "WI_LICENSE_NUM": 1038, "ASPEN_FACILITY_ID": "HSPLACU76", "MEDICARE_ID": "521334", "TYPE_CODE": "1", "FACILITY_TYPE_CODE": "14", "FACILITY_NAME": "THEDACARE MEDICAL CENTER - WAUPACA INC" }, "geometry": { "type": "Point", "coordinates": [ -89.076742, 44.345624 ] } },
{ "type": "Feature", "properties": { "OBJECTID": 27, "FACILITY_INTERNAL_ID": 3666, "ADDRESS": "1910 South Ave", "ADDRESS_2": null, "CITY": "La Crosse", "STATE": "WI", "ZIP": 54601, "ZIP_4": 5467, "LAT": 43.794282, "LON": -91.247147, "STATE_FIPS": 55, "COUNTY": "La Crosse", "COUNTY_FIPS": 55063, "TYPE_DESC": "HOSPITAL", "SUB_TYPE_DESC": "SHORT TERM", "WI_LICENSE_NUM": 23, "ASPEN_FACILITY_ID": "HSPLACU49", "MEDICARE_ID": "520087", "TYPE_CODE": "1", "FACILITY_TYPE_CODE": "11", "FACILITY_NAME": "GUNDERSEN LUTHERAN MEDICAL CENTER" }, "geometry": { "type": "Point", "coordinates": [ -91.247147, 43.794282 ] } },
{ "type": "Feature", "properties": { "OBJECTID": 28, "FACILITY_INTERNAL_ID": 3667, "ADDRESS": "135 S Gibson St", "ADDRESS_2": null, "CITY": "Medford", "STATE": "WI", "ZIP": 54451, "ZIP_4": 1622, "LAT": 45.135264, "LON": -90.356017, "STATE_FIPS": 55, "COUNTY": "Taylor", "COUNTY_FIPS": 55119, "TYPE_DESC": "HOSPITAL", "SUB_TYPE_DESC": "CRITICAL ACCESS HOSPITALS", "WI_LICENSE_NUM": 1027, "ASPEN_FACILITY_ID": "HSPLACU57", "MEDICARE_ID": "521324", "TYPE_CODE": "1", "FACILITY_TYPE_CODE": "14", "FACILITY_NAME": "ASPIRUS MEDFORD HOSPITAL & CLINICS, INC" }, "geometry": { "type": "Point", "coordinates": [ -90.356017, 45.135264 ] } },
{ "type": "Feature", "properties": { "OBJECTID": 29, "FACILITY_INTERNAL_ID": 3867, "ADDRESS": "1506 S Oneida St", "ADDRESS_2": null, "CITY": "Appleton", "STATE": "WI", "ZIP": 54915, "ZIP_4": 1305, "LAT": 44.24831, "LON": -88.40269, "STATE_FIPS": 55, "COUNTY": "Outagamie", "COUNTY_FIPS": 55087, "TYPE_DESC": "HOSPITAL", "SUB_TYPE_DESC": "SHORT TERM", "WI_LICENSE_NUM": 88, "ASPEN_FACILITY_ID": "HSPLACU97", "MEDICARE_ID": "520009", "TYPE_CODE": "1", "FACILITY_TYPE_CODE": "11", "FACILITY_NAME": "ASCENSION NE WISCONSIN - ST ELIZABETH CAMPUS" }, "geometry": { "type": "Point", "coordinates": [ -88.40269, 44.24831 ] } },
{ "type": "Feature", "properties": { "OBJECTID": 30, "FACILITY_INTERNAL_ID": 3995, "ADDRESS": "725 American Ave", "ADDRESS_2": null, "CITY": "Waukesha", "STATE": "WI", "ZIP": 53188, "ZIP_4": 5031, "LAT": 43.011174, "LON": -88.243083, "STATE_FIPS": 55, "COUNTY": "Waukesha", "COUNTY_FIPS": 55133, "TYPE_DESC": "HOSPITAL", "SUB_TYPE_DESC": "SHORT TERM", "WI_LICENSE_NUM": 41, "ASPEN_FACILITY_ID": "HSPLACU133", "MEDICARE_ID": "520008", "TYPE_CODE": "1", "FACILITY_TYPE_CODE": "11", "FACILITY_NAME": "WAUKESHA MEMORIAL HOSPITAL" }, "geometry": { "type": "Point", "coordinates": [ -88.243083, 43.011174 ] } },
{ "type": "Feature", "properties": { "OBJECTID": 31, "FACILITY_INTERNAL_ID": 4134, "ADDRESS": "700 S Park St", "ADDRESS_2": null, "CITY": "Madison", "STATE": "WI", "ZIP": 53715, "ZIP_4": 1830, "LAT": 43.05927, "LON": -89.40151, "STATE_FIPS": 55, "COUNTY": "Dane", "COUNTY_FIPS": 55025, "TYPE_DESC": "HOSPITAL", "SUB_TYPE_DESC": "SHORT TERM", "WI_LICENSE_NUM": 71, "ASPEN_FACILITY_ID": "HSPLACU111", "MEDICARE_ID": "520083", "TYPE_CODE": "1", "FACILITY_TYPE_CODE": "11", "FACILITY_NAME": "SSM HEALTH ST MARY'S HOSPITAL - MADISON" }, "geometry": { "type": "Point", "coordinates": [ -89.40151, 43.05927 ] } },
{ "type": "Feature", "properties": { "OBJECTID": 32, "FACILITY_INTERNAL_ID": 4178, "ADDRESS": "201 Hospital Rd", "ADDRESS_2": null, "CITY": "Eagle River", "STATE": "WI", "ZIP": 54521, "ZIP_4": 8835, "LAT": 45.928181, "LON": -89.251653, "STATE_FIPS": 55, "COUNTY": "Vilas", "COUNTY_FIPS": 55125, "TYPE_DESC": "HOSPITAL", "SUB_TYPE_DESC": "CRITICAL ACCESS HOSPITALS", "WI_LICENSE_NUM": 1000, "ASPEN_FACILITY_ID": "HSPLCRI1", "MEDICARE_ID": "521300", "TYPE_CODE": "1", "FACILITY_TYPE_CODE": "14", "FACILITY_NAME": "ASCENSION EAGLE RIVER HOSPITAL" }, "geometry": { "type": "Point", "coordinates": [ -89.251653, 45.928181 ] } },
{ "type": "Feature", "properties": { "OBJECTID": 33, "FACILITY_INTERNAL_ID": 4490, "ADDRESS": "2629 N 7th St", "ADDRESS_2": null, "CITY": "Sheboygan", "STATE": "WI", "ZIP": 53083, "ZIP_4": 4932, "LAT": 43.772867, "LON": -87.710409, "STATE_FIPS": 55, "COUNTY": "Sheboygan", "COUNTY_FIPS": 55117, "TYPE_DESC": "HOSPITAL", "SUB_TYPE_DESC": "SHORT TERM", "WI_LICENSE_NUM": 38, "ASPEN_FACILITY_ID": "HSPLACU87", "MEDICARE_ID": "520035", "TYPE_CODE": "1", "FACILITY_TYPE_CODE": "11", "FACILITY_NAME": "AURORA SHEBOYGAN MEMORIAL MEDICAL CTR" }, "geometry": { "type": "Point", "coordinates": [ -87.710409, 43.772867 ] } },
{ "type": "Feature", "properties": { "OBJECTID": 34, "FACILITY_INTERNAL_ID": 4586, "ADDRESS": "400 Water Ave", "ADDRESS_2": null, "CITY": "Hillsboro", "STATE": "WI", "ZIP": 54634, "ZIP_4": 9054, "LAT": 43.648683, "LON": -90.344913, "STATE_FIPS": 55, "COUNTY": "Vernon", "COUNTY_FIPS": 55123, "TYPE_DESC": "HOSPITAL", "SUB_TYPE_DESC": "CRITICAL ACCESS HOSPITALS", "WI_LICENSE_NUM": 1005, "ASPEN_FACILITY_ID": "HSPLCRI6", "MEDICARE_ID": "521304", "TYPE_CODE": "1", "FACILITY_TYPE_CODE": "14", "FACILITY_NAME": "GUNDERSEN ST JOSEPHS HOSPITAL AND CLINICS" }, "geometry": { "type": "Point", "coordinates": [ -90.344913, 43.648683 ] } },
{ "type": "Feature", "properties": { "OBJECTID": 35, "FACILITY_INTERNAL_ID": 4734, "ADDRESS": "13111 N Port Washington Rd", "ADDRESS_2": null, "CITY": "Mequon", "STATE": "WI", "ZIP": 53097, "ZIP_4": 2416, "LAT": 43.256481, "LON": -87.926095, "STATE_FIPS": 55, "COUNTY": "Ozaukee", "COUNTY_FIPS": 55089, "TYPE_DESC": "HOSPITAL", "SUB_TYPE_DESC": "SHORT TERM", "WI_LICENSE_NUM": 246, "ASPEN_FACILITY_ID": "HSPLACU114", "MEDICARE_ID": "520027", "TYPE_CODE": "1", "FACILITY_TYPE_CODE": "11", "FACILITY_NAME": "ASCENSION COLUMBIA ST MARY'S HOSPITAL OZAUKEE" }, "geometry": { "type": "Point", "coordinates": [ -87.926095, 43.256481000000115 ] } },
{ "type": "Feature", "properties": { "OBJECTID": 36, "FACILITY_INTERNAL_ID": 4876, "ADDRESS": "900 Illinois Ave", "ADDRESS_2": null, "CITY": "Stevens Point", "STATE": "WI", "ZIP": 54481, "ZIP_4": 3114, "LAT": 44.526208, "LON": -89.567073, "STATE_FIPS": 55, "COUNTY": "Portage", "COUNTY_FIPS": 55097, "TYPE_DESC": "HOSPITAL", "SUB_TYPE_DESC": "SHORT TERM", "WI_LICENSE_NUM": 146, "ASPEN_FACILITY_ID": "HSPLACU119", "MEDICARE_ID": "520002", "TYPE_CODE": "1", "FACILITY_TYPE_CODE": "11", "FACILITY_NAME": "ASCENSION ST MICHAELS HOSPITAL" }, "geometry": { "type": "Point", "coordinates": [ -89.567073, 44.526208 ] } },
{ "type": "Feature", "properties": { "OBJECTID": 37, "FACILITY_INTERNAL_ID": 4902, "ADDRESS": "202 S Park St", "ADDRESS_2": null, "CITY": "Madison", "STATE": "WI", "ZIP": 53715, "ZIP_4": 1507, "LAT": 43.06487, "LON": -89.40168, "STATE_FIPS": 55, "COUNTY": "Dane", "COUNTY_FIPS": 55025, "TYPE_DESC": "HOSPITAL", "SUB_TYPE_DESC": "SHORT TERM", "WI_LICENSE_NUM": 248, "ASPEN_FACILITY_ID": "HSPLACU66", "MEDICARE_ID": "520089", "TYPE_CODE": "1", "FACILITY_TYPE_CODE": "11", "FACILITY_NAME": "UNITYPOINT HEALTH - MERITER" }, "geometry": { "type": "Point", "coordinates": [ -89.40168, 43.06487 ] } },
{ "type": "Feature", "properties": { "OBJECTID": 38, "FACILITY_INTERNAL_ID": 6013, "ADDRESS": "9200 W Wisconsin Ave", "ADDRESS_2": null, "CITY": "Milwaukee", "STATE": "WI", "ZIP": 53226, "ZIP_4": 3522, "LAT": 43.040875, "LON": -88.024044, "STATE_FIPS": 55, "COUNTY": "Milwaukee", "COUNTY_FIPS": 55079, "TYPE_DESC": "HOSPITAL", "SUB_TYPE_DESC": "SHORT TERM", "WI_LICENSE_NUM": 232, "ASPEN_FACILITY_ID": "HSPLACU35", "MEDICARE_ID": "520177", "TYPE_CODE": "1", "FACILITY_TYPE_CODE": "11", "FACILITY_NAME": "FROEDTERT MEMORIAL LUTHERAN HOSPITAL" }, "geometry": { "type": "Point", "coordinates": [ -88.024044, 43.040875 ] } },
{ "type": "Feature", "properties": { "OBJECTID": 39, "FACILITY_INTERNAL_ID": 6054, "ADDRESS": "9000 W Wisconsin Ave", "ADDRESS_2": null, "CITY": "Milwaukee", "STATE": "WI", "ZIP": 53226, "ZIP_4": 4874, "LAT": 43.040875, "LON": -88.024044, "STATE_FIPS": 55, "COUNTY": "Milwaukee", "COUNTY_FIPS": 55079, "TYPE_DESC": "HOSPITAL", "SUB_TYPE_DESC": "CHILDRENS", "WI_LICENSE_NUM": 135, "ASPEN_FACILITY_ID": "HSPLACU19", "MEDICARE_ID": "523300", "TYPE_CODE": "1", "FACILITY_TYPE_CODE": "16", "FACILITY_NAME": "CHILDRENS HOSPITAL OF WISCONSIN" }, "geometry": { "type": "Point", "coordinates": [ -88.024044, 43.040875 ] } },
{ "type": "Feature", "properties": { "OBJECTID": 40, "FACILITY_INTERNAL_ID": 6057, "ADDRESS": "1515 Park Ave", "ADDRESS_2": null, "CITY": "Columbus", "STATE": "WI", "ZIP": 53925, "ZIP_4": 1618, "LAT": 43.32252, "LON": -89.035315, "STATE_FIPS": 55, "COUNTY": "Columbia", "COUNTY_FIPS": 55021, "TYPE_DESC": "HOSPITAL", "SUB_TYPE_DESC": "CRITICAL ACCESS HOSPITALS", "WI_LICENSE_NUM": 1042, "ASPEN_FACILITY_ID": "HSPLACU23", "MEDICARE_ID": "521338", "TYPE_CODE": "1", "FACILITY_TYPE_CODE": "14", "FACILITY_NAME": "COLUMBUS COMMUNITY HOSPITAL" }, "geometry": { "type": "Point", "coordinates": [ -89.035315, 43.32252 ] } },
{ "type": "Feature", "properties": { "OBJECTID": 41, "FACILITY_INTERNAL_ID": 6058, "ADDRESS": "855 S Main St", "ADDRESS_2": null, "CITY": "Oconto Falls", "STATE": "WI", "ZIP": 54154, "ZIP_4": 1241, "LAT": 44.865206, "LON": -88.128109, "STATE_FIPS": 55, "COUNTY": "Oconto", "COUNTY_FIPS": 55083, "TYPE_DESC": "HOSPITAL", "SUB_TYPE_DESC": "CRITICAL ACCESS HOSPITALS", "WI_LICENSE_NUM": 1012, "ASPEN_FACILITY_ID": "HSPLACU24", "MEDICARE_ID": "521310", "TYPE_CODE": "1", "FACILITY_TYPE_CODE": "14", "FACILITY_NAME": "HSHS ST CLARE MEMORIAL HOSPITAL" }, "geometry": { "type": "Point", "coordinates": [ -88.128109, 44.865206 ] } },
{ "type": "Feature", "properties": { "OBJECTID": 42, "FACILITY_INTERNAL_ID": 6059, "ADDRESS": "W180N8085 Town Hall Rd", "ADDRESS_2": null, "CITY": "Menomonee Falls", "STATE": "WI", "ZIP": 53051, "ZIP_4": 3518, "LAT": 43.16417, "LON": -88.1373, "STATE_FIPS": 55, "COUNTY": "Waukesha", "COUNTY_FIPS": 55133, "TYPE_DESC": "HOSPITAL", "SUB_TYPE_DESC": "SHORT TERM", "WI_LICENSE_NUM": 28, "ASPEN_FACILITY_ID": "HSPLACU25", "MEDICARE_ID": "520103", "TYPE_CODE": "1", "FACILITY_TYPE_CODE": "11", "FACILITY_NAME": "COMMUNITY MEMORIAL HOSPITAL" }, "geometry": { "type": "Point", "coordinates": [ -88.1373, 43.16417 ] } },
{ "type": "Feature", "properties": { "OBJECTID": 43, "FACILITY_INTERNAL_ID": 6063, "ADDRESS": "98 Sherry Ave", "ADDRESS_2": null, "CITY": "Park Falls", "STATE": "WI", "ZIP": 54552, "ZIP_4": 1467, "LAT": 45.930623, "LON": -90.441116, "STATE_FIPS": 55, "COUNTY": "Price", "COUNTY_FIPS": 55099, "TYPE_DESC": "HOSPITAL", "SUB_TYPE_DESC": "CRITICAL ACCESS HOSPITALS", "WI_LICENSE_NUM": 1028, "ASPEN_FACILITY_ID": "HSPLACU30", "MEDICARE_ID": "521325", "TYPE_CODE": "1", "FACILITY_TYPE_CODE": "14", "FACILITY_NAME": "FLAMBEAU HOSPITAL" }, "geometry": { "type": "Point", "coordinates": [ -90.441116, 45.930623 ] } },
{ "type": "Feature", "properties": { "OBJECTID": 44, "FACILITY_INTERNAL_ID": 6064, "ADDRESS": "611 Sherman Ave E", "ADDRESS_2": null, "CITY": "Fort Atkinson", "STATE": "WI", "ZIP": 53538, "ZIP_4": 1960, "LAT": 42.931511, "LON": -88.827913, "STATE_FIPS": 55, "COUNTY": "Jefferson", "COUNTY_FIPS": 55055, "TYPE_DESC": "HOSPITAL", "SUB_TYPE_DESC": "SHORT TERM", "WI_LICENSE_NUM": 133, "ASPEN_FACILITY_ID": "HSPLACU31", "MEDICARE_ID": "520071", "TYPE_CODE": "1", "FACILITY_TYPE_CODE": "11", "FACILITY_NAME": "FORT MEMORIAL HOSPITAL" }, "geometry": { "type": "Point", "coordinates": [ -88.827913, 42.931511 ] } },
{ "type": "Feature", "properties": { "OBJECTID": 45, "FACILITY_INTERNAL_ID": 6065, "ADDRESS": "700 West Ave S", "ADDRESS_2": null, "CITY": "La Crosse", "STATE": "WI", "ZIP": 54601, "ZIP_4": 4783, "LAT": 43.803996, "LON": -91.240329, "STATE_FIPS": 55, "COUNTY": "La Crosse", "COUNTY_FIPS": 55063, "TYPE_DESC": "HOSPITAL", "SUB_TYPE_DESC": "SHORT TERM", "WI_LICENSE_NUM": 24, "ASPEN_FACILITY_ID": "HSPLACU33", "MEDICARE_ID": "520004", "TYPE_CODE": "1", "FACILITY_TYPE_CODE": "11", "FACILITY_NAME": "MAYO CLINIC HLTH SYSTEM  FRANCISCAN MED CTR" }, "geometry": { "type": "Point", "coordinates": [ -91.240329, 43.803996 ] } },
{ "type": "Feature", "properties": { "OBJECTID": 46, "FACILITY_INTERNAL_ID": 6067, "ADDRESS": "601 S Center Ave", "ADDRESS_2": null, "CITY": "Merrill", "STATE": "WI", "ZIP": 54452, "ZIP_4": 3404, "LAT": 45.175568, "LON": -89.681764, "STATE_FIPS": 55, "COUNTY": "Lincoln", "COUNTY_FIPS": 55069, "TYPE_DESC": "HOSPITAL", "SUB_TYPE_DESC": "CRITICAL ACCESS HOSPITALS", "WI_LICENSE_NUM": 1043, "ASPEN_FACILITY_ID": "HSPLACU38", "MEDICARE_ID": "521339", "TYPE_CODE": "1", "FACILITY_TYPE_CODE": "14", "FACILITY_NAME": "ASCENSION GOOD SAMARITAN HOSPITAL" }, "geometry": { "type": "Point", "coordinates": [ -89.681764, 45.175568 ] } },
{ "type": "Feature", "properties": { "OBJECTID": 47, "FACILITY_INTERNAL_ID": 6068, "ADDRESS": "507 S Monroe St", "ADDRESS_2": null, "CITY": "Lancaster", "STATE": "WI", "ZIP": 53813, "ZIP_4": 2054, "LAT": 42.84362, "LON": -90.70889, "STATE_FIPS": 55, "COUNTY": "Grant", "COUNTY_FIPS": 55043, "TYPE_DESC": "HOSPITAL", "SUB_TYPE_DESC": "CRITICAL ACCESS HOSPITALS", "WI_LICENSE_NUM": 1025, "ASPEN_FACILITY_ID": "HSPLACU39", "MEDICARE_ID": "521322", "TYPE_CODE": "1", "FACILITY_TYPE_CODE": "14", "FACILITY_NAME": "GRANT REGIONAL HEALTH CENTER" }, "geometry": { "type": "Point", "coordinates": [ -90.70889, 42.84362 ] } },
{ "type": "Feature", "properties": { "OBJECTID": 48, "FACILITY_INTERNAL_ID": 6069, "ADDRESS": "1032 E Sumner St", "ADDRESS_2": null, "CITY": "Hartford", "STATE": "WI", "ZIP": 53027, "ZIP_4": 1608, "LAT": 43.318398, "LON": -88.362714, "STATE_FIPS": 55, "COUNTY": "Washington", "COUNTY_FIPS": 55131, "TYPE_DESC": "HOSPITAL", "SUB_TYPE_DESC": "SHORT TERM", "WI_LICENSE_NUM": 195, "ASPEN_FACILITY_ID": "HSPLACU40", "MEDICARE_ID": "520038", "TYPE_CODE": "1", "FACILITY_TYPE_CODE": "11", "FACILITY_NAME": "AURORA MEDICAL CTR WASHINGTON COUNTY" }, "geometry": { "type": "Point", "coordinates": [ -88.362714, 43.318398 ] } },
{ "type": "Feature", "properties": { "OBJECTID": 49, "FACILITY_INTERNAL_ID": 6070, "ADDRESS": "11040 N State Road 77", "ADDRESS_2": null, "CITY": "Hayward", "STATE": "WI", "ZIP": 54843, "ZIP_4": 3606, "LAT": 46.034747, "LON": -91.4861, "STATE_FIPS": 55, "COUNTY": "Sawyer", "COUNTY_FIPS": 55113, "TYPE_DESC": "HOSPITAL", "SUB_TYPE_DESC": "CRITICAL ACCESS HOSPITALS", "WI_LICENSE_NUM": 1040, "ASPEN_FACILITY_ID": "HSPLACU41", "MEDICARE_ID": "521336", "TYPE_CODE": "1", "FACILITY_TYPE_CODE": "14", "FACILITY_NAME": "HAYWARD AREA MEMORIAL HOSPITAL" }, "geometry": { "type": "Point", "coordinates": [ -91.4861, 46.034747 ] } },
{ "type": "Feature", "properties": { "OBJECTID": 50, "FACILITY_INTERNAL_ID": 6071, "ADDRESS": "1050 Division St", "ADDRESS_2": null, "CITY": "Mauston", "STATE": "WI", "ZIP": 53948, "ZIP_4": 1931, "LAT": 43.78297, "LON": -90.075462, "STATE_FIPS": 55, "COUNTY": "Juneau", "COUNTY_FIPS": 55057, "TYPE_DESC": "HOSPITAL", "SUB_TYPE_DESC": "SHORT TERM", "WI_LICENSE_NUM": 134, "ASPEN_FACILITY_ID": "HSPLACU42", "MEDICARE_ID": "520109", "TYPE_CODE": "1", "FACILITY_TYPE_CODE": "11", "FACILITY_NAME": "MILE BLUFF MEDICAL CENTER" }, "geometry": { "type": "Point", "coordinates": [ -90.075462, 43.78297 ] } },
{ "type": "Feature", "properties": { "OBJECTID": 51, "FACILITY_INTERNAL_ID": 6072, "ADDRESS": "535 Hospital Rd", "ADDRESS_2": null, "CITY": "New Richmond", "STATE": "WI", "ZIP": 54017, "ZIP_4": 1449, "LAT": 45.117865, "LON": -92.555282, "STATE_FIPS": 55, "COUNTY": "Saint Croix", "COUNTY_FIPS": 55109, "TYPE_DESC": "HOSPITAL", "SUB_TYPE_DESC": "CRITICAL ACCESS HOSPITALS", "WI_LICENSE_NUM": 1050, "ASPEN_FACILITY_ID": "HSPLACU43", "MEDICARE_ID": "521345", "TYPE_CODE": "1", "FACILITY_TYPE_CODE": "14", "FACILITY_NAME": "WESTFIELDS HOSPITAL AND CLINIC" }, "geometry": { "type": "Point", "coordinates": [ -92.555282, 45.117865 ] } },
{ "type": "Feature", "properties": { "OBJECTID": 52, "FACILITY_INTERNAL_ID": 6073, "ADDRESS": "2300 Western Ave", "ADDRESS_2": null, "CITY": "Manitowoc", "STATE": "WI", "ZIP": 54221, "ZIP_4": 3712, "LAT": 44.09499, "LON": -87.67665, "STATE_FIPS": 55, "COUNTY": "Manitowoc", "COUNTY_FIPS": 55071, "TYPE_DESC": "HOSPITAL", "SUB_TYPE_DESC": "SHORT TERM", "WI_LICENSE_NUM": 7, "ASPEN_FACILITY_ID": "HSPLACU44", "MEDICARE_ID": "520107", "TYPE_CODE": "1", "FACILITY_TYPE_CODE": "11", "FACILITY_NAME": "HOLY FAMILY MEMORIAL" }, "geometry": { "type": "Point", "coordinates": [ -87.67665, 44.09499 ] } },
{ "type": "Feature", "properties": { "OBJECTID": 53, "FACILITY_INTERNAL_ID": 6074, "ADDRESS": "405 Stageline Rd", "ADDRESS_2": null, "CITY": "Hudson", "STATE": "WI", "ZIP": 54016, "ZIP_4": 7848, "LAT": 44.96118, "LON": -92.71737, "STATE_FIPS": 55, "COUNTY": "Saint Croix", "COUNTY_FIPS": 55109, "TYPE_DESC": "HOSPITAL", "SUB_TYPE_DESC": "CRITICAL ACCESS HOSPITALS", "WI_LICENSE_NUM": 1039, "ASPEN_FACILITY_ID": "HSPLACU46", "MEDICARE_ID": "521335", "TYPE_CODE": "1", "FACILITY_TYPE_CODE": "14", "FACILITY_NAME": "HUDSON HOSPITAL & CLINIC" }, "geometry": { "type": "Point", "coordinates": [ -92.71737, 44.96118 ] } },
{ "type": "Feature", "properties": { "OBJECTID": 54, "FACILITY_INTERNAL_ID": 6075, "ADDRESS": "113 4th Ave", "ADDRESS_2": null, "CITY": "Shell Lake", "STATE": "WI", "ZIP": 54871, "ZIP_4": 4457, "LAT": 45.742335, "LON": -91.926491, "STATE_FIPS": 55, "COUNTY": "Washburn", "COUNTY_FIPS": 55129, "TYPE_DESC": "HOSPITAL", "SUB_TYPE_DESC": "CRITICAL ACCESS HOSPITALS", "WI_LICENSE_NUM": 1047, "ASPEN_FACILITY_ID": "HSPLACU47", "MEDICARE_ID": "521342", "TYPE_CODE": "1", "FACILITY_TYPE_CODE": "14", "FACILITY_NAME": "INDIANHEAD MEDICAL CENTER SHELL LAKE" }, "geometry": { "type": "Point", "coordinates": [ -91.926491, 45.742335 ] } },
{ "type": "Feature", "properties": { "OBJECTID": 55, "FACILITY_INTERNAL_ID": 6076, "ADDRESS": "6308 8th Ave", "ADDRESS_2": null, "CITY": "Kenosha", "STATE": "WI", "ZIP": 53143, "ZIP_4": 5031, "LAT": 42.57751, "LON": -87.8204, "STATE_FIPS": 55, "COUNTY": "Kenosha", "COUNTY_FIPS": 55059, "TYPE_DESC": "HOSPITAL", "SUB_TYPE_DESC": "SHORT TERM", "WI_LICENSE_NUM": 22, "ASPEN_FACILITY_ID": "HSPLACU48", "MEDICARE_ID": "520021", "TYPE_CODE": "1", "FACILITY_TYPE_CODE": "11", "FACILITY_NAME": "FROEDTERT SOUTH - KENOSHA MEDICAL CENTER" }, "geometry": { "type": "Point", "coordinates": [ -87.8204, 42.57751 ] } },
{ "type": "Feature", "properties": { "OBJECTID": 56, "FACILITY_INTERNAL_ID": 6077, "ADDRESS": "W3985 County Road Nn", "ADDRESS_2": null, "CITY": "Elkhorn", "STATE": "WI", "ZIP": 53121, "ZIP_4": 4337, "LAT": 42.661889, "LON": -88.496246, "STATE_FIPS": 55, "COUNTY": "Walworth", "COUNTY_FIPS": 55127, "TYPE_DESC": "HOSPITAL", "SUB_TYPE_DESC": "SHORT TERM", "WI_LICENSE_NUM": 132, "ASPEN_FACILITY_ID": "HSPLACU51", "MEDICARE_ID": "520102", "TYPE_CODE": "1", "FACILITY_TYPE_CODE": "11", "FACILITY_NAME": "AURORA LAKELAND MEDICAL CENTER" }, "geometry": { "type": "Point", "coordinates": [ -88.496246, 42.661889 ] } },
{ "type": "Feature", "properties": { "OBJECTID": 57, "FACILITY_INTERNAL_ID": 6093, "ADDRESS": "1700 W Stout St", "ADDRESS_2": null, "CITY": "Rice Lake", "STATE": "WI", "ZIP": 54868, "ZIP_4": 5000, "LAT": 45.50651, "LON": -91.758819, "STATE_FIPS": 55, "COUNTY": "Barron", "COUNTY_FIPS": 55005, "TYPE_DESC": "HOSPITAL", "SUB_TYPE_DESC": "SHORT TERM", "WI_LICENSE_NUM": 82, "ASPEN_FACILITY_ID": "HSPLACU52", "MEDICARE_ID": "520011", "TYPE_CODE": "1", "FACILITY_TYPE_CODE": "11", "FACILITY_NAME": "MARSHFIELD MEDICAL CENTER - RICE LAKE" }, "geometry": { "type": "Point", "coordinates": [ -91.758819, 45.50651 ] } },
{ "type": "Feature", "properties": { "OBJECTID": 58, "FACILITY_INTERNAL_ID": 6095, "ADDRESS": "112 E 5th Ave", "ADDRESS_2": null, "CITY": "Antigo", "STATE": "WI", "ZIP": 54409, "ZIP_4": 2710, "LAT": 45.141908, "LON": -89.139374, "STATE_FIPS": 55, "COUNTY": "Langlade", "COUNTY_FIPS": 55067, "TYPE_DESC": "HOSPITAL", "SUB_TYPE_DESC": "CRITICAL ACCESS HOSPITALS", "WI_LICENSE_NUM": 1055, "ASPEN_FACILITY_ID": "HSPLACU54", "MEDICARE_ID": "521350", "TYPE_CODE": "1", "FACILITY_TYPE_CODE": "14", "FACILITY_NAME": "ASPIRUS LANGLADE HOSPITAL" }, "geometry": { "type": "Point", "coordinates": [ -89.139374, 45.141908 ] } },
{ "type": "Feature", "properties": { "OBJECTID": 59, "FACILITY_INTERNAL_ID": 6096, "ADDRESS": "1221 Whipple St", "ADDRESS_2": null, "CITY": "Eau Claire", "STATE": "WI", "ZIP": 54703, "ZIP_4": 5270, "LAT": 44.813192, "LON": -91.511924, "STATE_FIPS": 55, "COUNTY": "Eau Claire", "COUNTY_FIPS": 55035, "TYPE_DESC": "HOSPITAL", "SUB_TYPE_DESC": "SHORT TERM", "WI_LICENSE_NUM": 48, "ASPEN_FACILITY_ID": "HSPLACU55", "MEDICARE_ID": "520070", "TYPE_CODE": "1", "FACILITY_TYPE_CODE": "11", "FACILITY_NAME": "MAYO CLINIC HEALTH SYSTEM IN EAU CLAIRE" }, "geometry": { "type": "Point", "coordinates": [ -91.511924, 44.813192 ] } },
{ "type": "Feature", "properties": { "OBJECTID": 60, "FACILITY_INTERNAL_ID": 6097, "ADDRESS": "11101 N Sherman Rd", "ADDRESS_2": null, "CITY": "Edgerton", "STATE": "WI", "ZIP": 53534, "ZIP_4": 9002, "LAT": 42.834679, "LON": -89.044186, "STATE_FIPS": 55, "COUNTY": "Rock", "COUNTY_FIPS": 55105, "TYPE_DESC": "HOSPITAL", "SUB_TYPE_DESC": "CRITICAL ACCESS HOSPITALS", "WI_LICENSE_NUM": 1022, "ASPEN_FACILITY_ID": "HSPLACU56", "MEDICARE_ID": "521319", "TYPE_CODE": "1", "FACILITY_TYPE_CODE": "14", "FACILITY_NAME": "EDGERTON HOSPITAL AND HEALTH SERVICES" }, "geometry": { "type": "Point", "coordinates": [ -89.044186, 42.834679 ] } },
{ "type": "Feature", "properties": { "OBJECTID": 61, "FACILITY_INTERNAL_ID": 6098, "ADDRESS": "791 Summit Ave", "ADDRESS_2": null, "CITY": "Oconomowoc", "STATE": "WI", "ZIP": 53066, "ZIP_4": 3844, "LAT": 43.100171, "LON": -88.486844, "STATE_FIPS": 55, "COUNTY": "Waukesha", "COUNTY_FIPS": 55133, "TYPE_DESC": "HOSPITAL", "SUB_TYPE_DESC": "SHORT TERM", "WI_LICENSE_NUM": 113, "ASPEN_FACILITY_ID": "HSPLACU58", "MEDICARE_ID": "520062", "TYPE_CODE": "1", "FACILITY_TYPE_CODE": "11", "FACILITY_NAME": "OCONOMOWOC MEMORIAL HOSPITAL" }, "geometry": { "type": "Point", "coordinates": [ -88.486844, 43.100171 ] } },
{ "type": "Feature", "properties": { "OBJECTID": 62, "FACILITY_INTERNAL_ID": 6099, "ADDRESS": "252 McHenry St", "ADDRESS_2": null, "CITY": "Burlington", "STATE": "WI", "ZIP": 53105, "ZIP_4": 1828, "LAT": 42.672981, "LON": -88.281014, "STATE_FIPS": 55, "COUNTY": "Racine", "COUNTY_FIPS": 55101, "TYPE_DESC": "HOSPITAL", "SUB_TYPE_DESC": "SHORT TERM", "WI_LICENSE_NUM": 14, "ASPEN_FACILITY_ID": "HSPLACU59", "MEDICARE_ID": "520059", "TYPE_CODE": "1", "FACILITY_TYPE_CODE": "11", "FACILITY_NAME": "AURORA MEDICAL CENTER BURLINGTON" }, "geometry": { "type": "Point", "coordinates": [ -88.281014, 42.672981 ] } },
{ "type": "Feature", "properties": { "OBJECTID": 63, "FACILITY_INTERNAL_ID": 6100, "ADDRESS": "800 Compassion Way", "ADDRESS_2": null, "CITY": "Dodgeville", "STATE": "WI", "ZIP": 53533, "ZIP_4": 1956, "LAT": 42.950962, "LON": -90.129011, "STATE_FIPS": 55, "COUNTY": "Iowa", "COUNTY_FIPS": 55049, "TYPE_DESC": "HOSPITAL", "SUB_TYPE_DESC": "CRITICAL ACCESS HOSPITALS", "WI_LICENSE_NUM": 1056, "ASPEN_FACILITY_ID": "HSPLACU60", "MEDICARE_ID": "521352", "TYPE_CODE": "1", "FACILITY_TYPE_CODE": "14", "FACILITY_NAME": "UPLAND HILLS HEALTH" }, "geometry": { "type": "Point", "coordinates": [ -90.129011, 42.950962 ] } },
{ "type": "Feature", "properties": { "OBJECTID": 64, "FACILITY_INTERNAL_ID": 6101, "ADDRESS": "800 Clay St", "ADDRESS_2": null, "CITY": "Darlington", "STATE": "WI", "ZIP": 53530, "ZIP_4": 1228, "LAT": 42.683989, "LON": -90.110089, "STATE_FIPS": 55, "COUNTY": "Lafayette", "COUNTY_FIPS": 55065, "TYPE_DESC": "HOSPITAL", "SUB_TYPE_DESC": "CRITICAL ACCESS HOSPITALS", "WI_LICENSE_NUM": 1015, "ASPEN_FACILITY_ID": "HSPLACU61", "MEDICARE_ID": "521312", "TYPE_CODE": "1", "FACILITY_TYPE_CODE": "14", "FACILITY_NAME": "MEMORIAL HOSPITAL OF LAFAYETTE COUNTY" }, "geometry": { "type": "Point", "coordinates": [ -90.110089, 42.683989 ] } },
{ "type": "Feature", "properties": { "OBJECTID": 65, "FACILITY_INTERNAL_ID": 6102, "ADDRESS": "1615 Maple Ln", "ADDRESS_2": null, "CITY": "Ashland", "STATE": "WI", "ZIP": 54806, "ZIP_4": 3610, "LAT": 46.568498, "LON": -90.888473, "STATE_FIPS": 55, "COUNTY": "Ashland", "COUNTY_FIPS": 55003, "TYPE_DESC": "HOSPITAL", "SUB_TYPE_DESC": "CRITICAL ACCESS HOSPITALS", "WI_LICENSE_NUM": 1065, "ASPEN_FACILITY_ID": "HSPLACU63", "MEDICARE_ID": "521359", "TYPE_CODE": "1", "FACILITY_TYPE_CODE": "14", "FACILITY_NAME": "MEMORIAL MEDICAL CENTER" }, "geometry": { "type": "Point", "coordinates": [ -90.888473, 46.568498 ] } },
{ "type": "Feature", "properties": { "OBJECTID": 66, "FACILITY_INTERNAL_ID": 6103, "ADDRESS": "2005 5th St", "ADDRESS_2": null, "CITY": "Monroe", "STATE": "WI", "ZIP": 53566, "ZIP_4": 1546, "LAT": 42.608515, "LON": -89.634426, "STATE_FIPS": 55, "COUNTY": "Green", "COUNTY_FIPS": 55045, "TYPE_DESC": "HOSPITAL", "SUB_TYPE_DESC": "SHORT TERM", "WI_LICENSE_NUM": 56, "ASPEN_FACILITY_ID": "HSPLACU67", "MEDICARE_ID": "520028", "TYPE_CODE": "1", "FACILITY_TYPE_CODE": "11", "FACILITY_NAME": "THE MONROE CLINIC" }, "geometry": { "type": "Point", "coordinates": [ -89.634426, 42.608515 ] } },
{ "type": "Feature", "properties": { "OBJECTID": 67, "FACILITY_INTERNAL_ID": 6104, "ADDRESS": "2321 Stout Rd", "ADDRESS_2": null, "CITY": "Menomonie", "STATE": "WI", "ZIP": 54751, "ZIP_4": 7003, "LAT": 44.883234, "LON": -91.90087, "STATE_FIPS": 55, "COUNTY": "Dunn", "COUNTY_FIPS": 55033, "TYPE_DESC": "HOSPITAL", "SUB_TYPE_DESC": "CRITICAL ACCESS HOSPITALS", "WI_LICENSE_NUM": 1044, "ASPEN_FACILITY_ID": "HSPLACU68", "MEDICARE_ID": "521340", "TYPE_CODE": "1", "FACILITY_TYPE_CODE": "14", "FACILITY_NAME": "MAYO CLINIC HEALTH SYSTEM-RED CEDAR" }, "geometry": { "type": "Point", "coordinates": [ -91.90087, 44.883234 ] } },
{ "type": "Feature", "properties": { "OBJECTID": 68, "FACILITY_INTERNAL_ID": 6105, "ADDRESS": "1405 Mill St", "ADDRESS_2": null, "CITY": "New London", "STATE": "WI", "ZIP": 54961, "ZIP_4": 2155, "LAT": 44.381136, "LON": -88.733734, "STATE_FIPS": 55, "COUNTY": "Outagamie", "COUNTY_FIPS": 55087, "TYPE_DESC": "HOSPITAL", "SUB_TYPE_DESC": "CRITICAL ACCESS HOSPITALS", "WI_LICENSE_NUM": 1029, "ASPEN_FACILITY_ID": "HSPLACU69", "MEDICARE_ID": "521326", "TYPE_CODE": "1", "FACILITY_TYPE_CODE": "14", "FACILITY_NAME": "THEDACARE MEDICAL CENTER NEW LONDON" }, "geometry": { "type": "Point", "coordinates": [ -88.733734, 44.381136 ] } },
{ "type": "Feature", "properties": { "OBJECTID": 69, "FACILITY_INTERNAL_ID": 6107, "ADDRESS": "37868 US Highway 18", "ADDRESS_2": null, "CITY": "Prairie Du Chien", "STATE": "WI", "ZIP": 53821, "ZIP_4": 8416, "LAT": 43.021622, "LON": -91.11314, "STATE_FIPS": 55, "COUNTY": "Crawford", "COUNTY_FIPS": 55023, "TYPE_DESC": "HOSPITAL", "SUB_TYPE_DESC": "CRITICAL ACCESS HOSPITALS", "WI_LICENSE_NUM": 1033, "ASPEN_FACILITY_ID": "HSPLACU71", "MEDICARE_ID": "521330", "TYPE_CODE": "1", "FACILITY_TYPE_CODE": "14", "FACILITY_NAME": "CROSSING RIVERS HEALTH MEDICAL CENTER" }, "geometry": { "type": "Point", "coordinates": [ -91.11314, 43.021622 ] } },
{ "type": "Feature", "properties": { "OBJECTID": 70, "FACILITY_INTERNAL_ID": 6108, "ADDRESS": "2000 N Dewey Ave", "ADDRESS_2": null, "CITY": "Reedsburg", "STATE": "WI", "ZIP": 53959, "ZIP_4": 1049, "LAT": 43.549629, "LON": -89.993232, "STATE_FIPS": 55, "COUNTY": "Sauk", "COUNTY_FIPS": 55111, "TYPE_DESC": "HOSPITAL", "SUB_TYPE_DESC": "CRITICAL ACCESS HOSPITALS", "WI_LICENSE_NUM": 1057, "ASPEN_FACILITY_ID": "HSPLACU72", "MEDICARE_ID": "521351", "TYPE_CODE": "1", "FACILITY_TYPE_CODE": "14", "FACILITY_NAME": "REEDSBURG AREA MEDICAL CENTER" }, "geometry": { "type": "Point", "coordinates": [ -89.993232, 43.549629 ] } },
{ "type": "Feature", "properties": { "OBJECTID": 71, "FACILITY_INTERNAL_ID": 6109, "ADDRESS": "333 E 2nd St", "ADDRESS_2": null, "CITY": "Richland Center", "STATE": "WI", "ZIP": 53581, "ZIP_4": 1914, "LAT": 43.338966, "LON": -90.382229, "STATE_FIPS": 55, "COUNTY": "Richland", "COUNTY_FIPS": 55103, "TYPE_DESC": "HOSPITAL", "SUB_TYPE_DESC": "CRITICAL ACCESS HOSPITALS", "WI_LICENSE_NUM": 1045, "ASPEN_FACILITY_ID": "HSPLACU73", "MEDICARE_ID": "521341", "TYPE_CODE": "1", "FACILITY_TYPE_CODE": "14", "FACILITY_NAME": "RICHLAND HOSPITAL" }, "geometry": { "type": "Point", "coordinates": [ -90.382229, 43.338966 ] } },
{ "type": "Feature", "properties": { "OBJECTID": 72, "FACILITY_INTERNAL_ID": 6110, "ADDRESS": "845 Parkside St", "ADDRESS_2": null, "CITY": "Ripon", "STATE": "WI", "ZIP": 54971, "ZIP_4": 8505, "LAT": 43.834308, "LON": -88.818008, "STATE_FIPS": 55, "COUNTY": "Fond Du Lac", "COUNTY_FIPS": 55039, "TYPE_DESC": "HOSPITAL", "SUB_TYPE_DESC": "CRITICAL ACCESS HOSPITALS", "WI_LICENSE_NUM": 1024, "ASPEN_FACILITY_ID": "HSPLACU74", "MEDICARE_ID": "521321", "TYPE_CODE": "1", "FACILITY_TYPE_CODE": "14", "FACILITY_NAME": "RIPON MEDICAL CENTER" }, "geometry": { "type": "Point", "coordinates": [ -88.818008, 43.834308 ] } },
{ "type": "Feature", "properties": { "OBJECTID": 73, "FACILITY_INTERNAL_ID": 6111, "ADDRESS": "1629 E Division St", "ADDRESS_2": null, "CITY": "River Falls", "STATE": "WI", "ZIP": 54022, "ZIP_4": 1571, "LAT": 44.864539, "LON": -92.602777, "STATE_FIPS": 55, "COUNTY": "Saint Croix", "COUNTY_FIPS": 55109, "TYPE_DESC": "HOSPITAL", "SUB_TYPE_DESC": "CRITICAL ACCESS HOSPITALS", "WI_LICENSE_NUM": 1054, "ASPEN_FACILITY_ID": "HSPLACU75", "MEDICARE_ID": "521349", "TYPE_CODE": "1", "FACILITY_TYPE_CODE": "14", "FACILITY_NAME": "RIVER FALLS AREA HOSPITAL" }, "geometry": { "type": "Point", "coordinates": [ -92.602777, 44.864539 ] } },
{ "type": "Feature", "properties": { "OBJECTID": 74, "FACILITY_INTERNAL_ID": 6112, "ADDRESS": "410 Dewey St", "ADDRESS_2": null, "CITY": "Wisconsin Rapids", "STATE": "WI", "ZIP": 54495, "ZIP_4": 4715, "LAT": 44.381749, "LON": -89.829937, "STATE_FIPS": 55, "COUNTY": "Wood", "COUNTY_FIPS": 55141, "TYPE_DESC": "HOSPITAL", "SUB_TYPE_DESC": "SHORT TERM", "WI_LICENSE_NUM": 11, "ASPEN_FACILITY_ID": "HSPLACU77", "MEDICARE_ID": "520033", "TYPE_CODE": "1", "FACILITY_TYPE_CODE": "11", "FACILITY_NAME": "ASPIRUS RIVERVIEW HOSPITAL & CLINICS INC" }, "geometry": { "type": "Point", "coordinates": [ -89.829937, 44.381749 ] } },
{ "type": "Feature", "properties": { "OBJECTID": 75, "FACILITY_INTERNAL_ID": 6113, "ADDRESS": "900 College Ave W", "ADDRESS_2": null, "CITY": "Ladysmith", "STATE": "WI", "ZIP": 54848, "ZIP_4": 2116, "LAT": 45.454741, "LON": -91.110022, "STATE_FIPS": 55, "COUNTY": "Rusk", "COUNTY_FIPS": 55107, "TYPE_DESC": "HOSPITAL", "SUB_TYPE_DESC": "CRITICAL ACCESS HOSPITALS", "WI_LICENSE_NUM": 1030, "ASPEN_FACILITY_ID": "HSPLACU78", "MEDICARE_ID": "521328", "TYPE_CODE": "1", "FACILITY_TYPE_CODE": "14", "FACILITY_NAME": "MARSHFIELD MEDICAL CENTER - LADYSMITH" }, "geometry": { "type": "Point", "coordinates": [ -91.110022, 45.454741 ] } },
{ "type": "Feature", "properties": { "OBJECTID": 76, "FACILITY_INTERNAL_ID": 6115, "ADDRESS": "401 W Mohawk Dr Ste 100", "ADDRESS_2": null, "CITY": "Tomahawk", "STATE": "WI", "ZIP": 54487, "ZIP_4": 2273, "LAT": 45.486395, "LON": -89.733977, "STATE_FIPS": 55, "COUNTY": "Lincoln", "COUNTY_FIPS": 55069, "TYPE_DESC": "HOSPITAL", "SUB_TYPE_DESC": "CRITICAL ACCESS HOSPITALS", "WI_LICENSE_NUM": 1016, "ASPEN_FACILITY_ID": "HSPLACU80", "MEDICARE_ID": "521313", "TYPE_CODE": "1", "FACILITY_TYPE_CODE": "14", "FACILITY_NAME": "ASCENSION SACRED HEART HOSPITAL" }, "geometry": { "type": "Point", "coordinates": [ -89.733977, 45.486395 ] } },
{ "type": "Feature", "properties": { "OBJECTID": 77, "FACILITY_INTERNAL_ID": 6119, "ADDRESS": "260 26th St", "ADDRESS_2": null, "CITY": "Prairie Du Sac", "STATE": "WI", "ZIP": 53578, "ZIP_4": 2203, "LAT": 43.286747, "LON": -89.752721, "STATE_FIPS": 55, "COUNTY": "Sauk", "COUNTY_FIPS": 55111, "TYPE_DESC": "HOSPITAL", "SUB_TYPE_DESC": "SHORT TERM", "WI_LICENSE_NUM": 122, "ASPEN_FACILITY_ID": "HSPLACU84", "MEDICARE_ID": "520095", "TYPE_CODE": "1", "FACILITY_TYPE_CODE": "11", "FACILITY_NAME": "SAUK PRAIRIE HOSPITAL" }, "geometry": { "type": "Point", "coordinates": [ -89.752721, 43.286747 ] } },
{ "type": "Feature", "properties": { "OBJECTID": 78, "FACILITY_INTERNAL_ID": 6123, "ADDRESS": "1280 Chandler Dr", "ADDRESS_2": null, "CITY": "Spooner", "STATE": "WI", "ZIP": 54801, "ZIP_4": null, "LAT": 45.825625, "LON": -91.896964, "STATE_FIPS": 55, "COUNTY": "Washburn", "COUNTY_FIPS": 55129, "TYPE_DESC": "HOSPITAL", "SUB_TYPE_DESC": "CRITICAL ACCESS HOSPITALS", "WI_LICENSE_NUM": 1036, "ASPEN_FACILITY_ID": "HSPLACU91", "MEDICARE_ID": "521332", "TYPE_CODE": "1", "FACILITY_TYPE_CODE": "14", "FACILITY_NAME": "SPOONER HEALTH SYSTEM" }, "geometry": { "type": "Point", "coordinates": [ -91.896964, 45.825625 ] } },
{ "type": "Feature", "properties": { "OBJECTID": 79, "FACILITY_INTERNAL_ID": 6124, "ADDRESS": "3500 Tower Ave", "ADDRESS_2": null, "CITY": "Superior", "STATE": "WI", "ZIP": 54880, "ZIP_4": 4491, "LAT": 46.69749, "LON": -92.10211, "STATE_FIPS": 55, "COUNTY": "Douglas", "COUNTY_FIPS": 55031, "TYPE_DESC": "HOSPITAL", "SUB_TYPE_DESC": "CRITICAL ACCESS HOSPITALS", "WI_LICENSE_NUM": 1032, "ASPEN_FACILITY_ID": "HSPLACU92", "MEDICARE_ID": "521329", "TYPE_CODE": "1", "FACILITY_TYPE_CODE": "14", "FACILITY_NAME": "ESSENTIA HEALTH ST MARY'S HOSPITAL - SUPERIOR" }, "geometry": { "type": "Point", "coordinates": [ -92.10211, 46.69749 ] } },
{ "type": "Feature", "properties": { "OBJECTID": 80, "FACILITY_INTERNAL_ID": 6125, "ADDRESS": "430 E Division St", "ADDRESS_2": null, "CITY": "Fond Du Lac", "STATE": "WI", "ZIP": 54935, "ZIP_4": 4560, "LAT": 43.777826, "LON": -88.43103, "STATE_FIPS": 55, "COUNTY": "Fond Du Lac", "COUNTY_FIPS": 55039, "TYPE_DESC": "HOSPITAL", "SUB_TYPE_DESC": "SHORT TERM", "WI_LICENSE_NUM": 120, "ASPEN_FACILITY_ID": "HSPLACU93", "MEDICARE_ID": "520088", "TYPE_CODE": "1", "FACILITY_TYPE_CODE": "11", "FACILITY_NAME": "ST AGNES HOSPITAL" }, "geometry": { "type": "Point", "coordinates": [ -88.43103, 43.777826 ] } },
{ "type": "Feature", "properties": { "OBJECTID": 81, "FACILITY_INTERNAL_ID": 6127, "ADDRESS": "707 14th St", "ADDRESS_2": null, "CITY": "Baraboo", "STATE": "WI", "ZIP": 53913, "ZIP_4": 1539, "LAT": 43.48131, "LON": -89.73008, "STATE_FIPS": 55, "COUNTY": "Sauk", "COUNTY_FIPS": 55111, "TYPE_DESC": "HOSPITAL", "SUB_TYPE_DESC": "SHORT TERM", "WI_LICENSE_NUM": 65, "ASPEN_FACILITY_ID": "HSPLACU95", "MEDICARE_ID": "520057", "TYPE_CODE": "1", "FACILITY_TYPE_CODE": "11", "FACILITY_NAME": "SSM HEALTH ST CLARE HOSPITAL - BARABOO" }, "geometry": { "type": "Point", "coordinates": [ -89.73008, 43.48131 ] } },
{ "type": "Feature", "properties": { "OBJECTID": 82, "FACILITY_INTERNAL_ID": 6128, "ADDRESS": "235 E State St", "ADDRESS_2": null, "CITY": "Saint Croix Falls", "STATE": "WI", "ZIP": 54024, "ZIP_4": 4117, "LAT": 45.408699, "LON": -92.6428, "STATE_FIPS": 55, "COUNTY": "Polk", "COUNTY_FIPS": 55095, "TYPE_DESC": "HOSPITAL", "SUB_TYPE_DESC": "CRITICAL ACCESS HOSPITALS", "WI_LICENSE_NUM": 1041, "ASPEN_FACILITY_ID": "HSPLACU96", "MEDICARE_ID": "521337", "TYPE_CODE": "1", "FACILITY_TYPE_CODE": "14", "FACILITY_NAME": "ST CROIX REGIONAL MEDICAL CENTER" }, "geometry": { "type": "Point", "coordinates": [ -92.6428, 45.408699 ] } },
{ "type": "Feature", "properties": { "OBJECTID": 83, "FACILITY_INTERNAL_ID": 6129, "ADDRESS": "3200 Pleasant Valley Rd", "ADDRESS_2": null, "CITY": "West Bend", "STATE": "WI", "ZIP": 53095, "ZIP_4": 9274, "LAT": 43.355616, "LON": -88.195033, "STATE_FIPS": 55, "COUNTY": "Washington", "COUNTY_FIPS": 55131, "TYPE_DESC": "HOSPITAL", "SUB_TYPE_DESC": "SHORT TERM", "WI_LICENSE_NUM": 44, "ASPEN_FACILITY_ID": "HSPLACU99", "MEDICARE_ID": "520063", "TYPE_CODE": "1", "FACILITY_TYPE_CODE": "11", "FACILITY_NAME": "ST JOSEPHS COMMUNITY HOSPITAL OF WEST BEND" }, "geometry": { "type": "Point", "coordinates": [ -88.195033, 43.355616 ] } },
{ "type": "Feature", "properties": { "OBJECTID": 84, "FACILITY_INTERNAL_ID": 6130, "ADDRESS": "5000 W Chambers St", "ADDRESS_2": null, "CITY": "Milwaukee", "STATE": "WI", "ZIP": 53210, "ZIP_4": 1650, "LAT": 43.074094, "LON": -87.976102, "STATE_FIPS": 55, "COUNTY": "Milwaukee", "COUNTY_FIPS": 55079, "TYPE_DESC": "HOSPITAL", "SUB_TYPE_DESC": "SHORT TERM", "WI_LICENSE_NUM": 30, "ASPEN_FACILITY_ID": "HSPLACU100", "MEDICARE_ID": "520136", "TYPE_CODE": "1", "FACILITY_TYPE_CODE": "11", "FACILITY_NAME": "ASCENSION SE WISCONSIN HOSPITAL - ST JOSEPH CAMPUS" }, "geometry": { "type": "Point", "coordinates": [ -87.976102, 43.074094 ] } },
{ "type": "Feature", "properties": { "OBJECTID": 85, "FACILITY_INTERNAL_ID": 6136, "ADDRESS": "2900 W Oklahoma Ave", "ADDRESS_2": null, "CITY": "Milwaukee", "STATE": "WI", "ZIP": 53215, "ZIP_4": 4330, "LAT": 42.98975, "LON": -87.95074, "STATE_FIPS": 55, "COUNTY": "Milwaukee", "COUNTY_FIPS": 55079, "TYPE_DESC": "HOSPITAL", "SUB_TYPE_DESC": "SHORT TERM", "WI_LICENSE_NUM": 160, "ASPEN_FACILITY_ID": "HSPLACU108", "MEDICARE_ID": "520138", "TYPE_CODE": "1", "FACILITY_TYPE_CODE": "11", "FACILITY_NAME": "AURORA ST LUKES MEDICAL CENTER" }, "geometry": { "type": "Point", "coordinates": [ -87.95074, 42.98975 ] } },
{ "type": "Feature", "properties": { "OBJECTID": 86, "FACILITY_INTERNAL_ID": 6139, "ADDRESS": "1726 Shawano Ave", "ADDRESS_2": null, "CITY": "Green Bay", "STATE": "WI", "ZIP": 54303, "ZIP_4": 3216, "LAT": 44.533133, "LON": -88.065964, "STATE_FIPS": 55, "COUNTY": "Brown", "COUNTY_FIPS": 55009, "TYPE_DESC": "HOSPITAL", "SUB_TYPE_DESC": "SHORT TERM", "WI_LICENSE_NUM": 18, "ASPEN_FACILITY_ID": "HSPLACU112", "MEDICARE_ID": "520097", "TYPE_CODE": "1", "FACILITY_TYPE_CODE": "11", "FACILITY_NAME": "ST MARYS HOSPITAL MEDICAL CTR" }, "geometry": { "type": "Point", "coordinates": [ -88.065964, 44.533133 ] } },
{ "type": "Feature", "properties": { "OBJECTID": 87, "FACILITY_INTERNAL_ID": 6141, "ADDRESS": "3801 Spring St", "ADDRESS_2": null, "CITY": "Mount Pleasant", "STATE": "WI", "ZIP": 53405, "ZIP_4": 1667, "LAT": 42.73138, "LON": -87.82697, "STATE_FIPS": 55, "COUNTY": "Racine", "COUNTY_FIPS": 55101, "TYPE_DESC": "HOSPITAL", "SUB_TYPE_DESC": "SHORT TERM", "WI_LICENSE_NUM": 123, "ASPEN_FACILITY_ID": "HSPLACU116", "MEDICARE_ID": "520096", "TYPE_CODE": "1", "FACILITY_TYPE_CODE": "11", "FACILITY_NAME": "ASCENSION ALL SAINTS HOSPITAL" }, "geometry": { "type": "Point", "coordinates": [ -87.82697, 42.73138 ] } },
{ "type": "Feature", "properties": { "OBJECTID": 88, "FACILITY_INTERNAL_ID": 6142, "ADDRESS": "2251 N Shore Dr", "ADDRESS_2": null, "CITY": "Rhinelander", "STATE": "WI", "ZIP": 54501, "ZIP_4": 6710, "LAT": 45.639105, "LON": -89.374952, "STATE_FIPS": 55, "COUNTY": "Oneida", "COUNTY_FIPS": 55085, "TYPE_DESC": "HOSPITAL", "SUB_TYPE_DESC": "SHORT TERM", "WI_LICENSE_NUM": 138, "ASPEN_FACILITY_ID": "HSPLACU117", "MEDICARE_ID": "520019", "TYPE_CODE": "1", "FACILITY_TYPE_CODE": "11", "FACILITY_NAME": "ASCENSION ST MARYS HOSPITAL" }, "geometry": { "type": "Point", "coordinates": [ -89.374952, 45.639105 ] } },
{ "type": "Feature", "properties": { "OBJECTID": 89, "FACILITY_INTERNAL_ID": 6144, "ADDRESS": "835 S Van Buren St", "ADDRESS_2": null, "CITY": "Green Bay", "STATE": "WI", "ZIP": 54301, "ZIP_4": 3526, "LAT": 44.50105, "LON": -88.01222, "STATE_FIPS": 55, "COUNTY": "Brown", "COUNTY_FIPS": 55009, "TYPE_DESC": "HOSPITAL", "SUB_TYPE_DESC": "SHORT TERM", "WI_LICENSE_NUM": 19, "ASPEN_FACILITY_ID": "HSPLACU121", "MEDICARE_ID": "520075", "TYPE_CODE": "1", "FACILITY_TYPE_CODE": "11", "FACILITY_NAME": "ST VINCENT HOSPITAL" }, "geometry": { "type": "Point", "coordinates": [ -88.01222, 44.50105 ] } },
{ "type": "Feature", "properties": { "OBJECTID": 90, "FACILITY_INTERNAL_ID": 6145, "ADDRESS": "900 Ridge St", "ADDRESS_2": null, "CITY": "Stoughton", "STATE": "WI", "ZIP": 53589, "ZIP_4": 1864, "LAT": 42.920696, "LON": -89.211082, "STATE_FIPS": 55, "COUNTY": "Dane", "COUNTY_FIPS": 55025, "TYPE_DESC": "HOSPITAL", "SUB_TYPE_DESC": "CRITICAL ACCESS HOSPITALS", "WI_LICENSE_NUM": 1046, "ASPEN_FACILITY_ID": "HSPLACU122", "MEDICARE_ID": "521343", "TYPE_CODE": "1", "FACILITY_TYPE_CODE": "14", "FACILITY_NAME": "STOUGHTON HOSPITAL" }, "geometry": { "type": "Point", "coordinates": [ -89.211082, 42.920696 ] } },
{ "type": "Feature", "properties": { "OBJECTID": 91, "FACILITY_INTERNAL_ID": 6146, "ADDRESS": "130 2nd St", "ADDRESS_2": null, "CITY": "Neenah", "STATE": "WI", "ZIP": 54956, "ZIP_4": 2883, "LAT": 44.187489, "LON": -88.453849, "STATE_FIPS": 55, "COUNTY": "Winnebago", "COUNTY_FIPS": 55139, "TYPE_DESC": "HOSPITAL", "SUB_TYPE_DESC": "SHORT TERM", "WI_LICENSE_NUM": 32, "ASPEN_FACILITY_ID": "HSPLACU123", "MEDICARE_ID": "520045", "TYPE_CODE": "1", "FACILITY_TYPE_CODE": "11", "FACILITY_NAME": "THEDACARE REGIONAL MEDICAL CENTER - NEENAH INC" }, "geometry": { "type": "Point", "coordinates": [ -88.453849, 44.187489 ] } },
{ "type": "Feature", "properties": { "OBJECTID": 92, "FACILITY_INTERNAL_ID": 6147, "ADDRESS": "321 Butts Ave", "ADDRESS_2": null, "CITY": "Tomah", "STATE": "WI", "ZIP": 54660, "ZIP_4": 1412, "LAT": 43.98417, "LON": -90.515451, "STATE_FIPS": 55, "COUNTY": "Monroe", "COUNTY_FIPS": 55081, "TYPE_DESC": "HOSPITAL", "SUB_TYPE_DESC": "CRITICAL ACCESS HOSPITALS", "WI_LICENSE_NUM": 1023, "ASPEN_FACILITY_ID": "HSPLACU124", "MEDICARE_ID": "521320", "TYPE_CODE": "1", "FACILITY_TYPE_CODE": "14", "FACILITY_NAME": "TOMAH MEMORIAL HOSPITAL" }, "geometry": { "type": "Point", "coordinates": [ -90.515451, 43.98417 ] } },
{ "type": "Feature", "properties": { "OBJECTID": 93, "FACILITY_INTERNAL_ID": 6148, "ADDRESS": "18601 Lincoln St", "ADDRESS_2": null, "CITY": "Whitehall", "STATE": "WI", "ZIP": 54773, "ZIP_4": 8605, "LAT": 44.364377, "LON": -91.318744, "STATE_FIPS": 55, "COUNTY": "Trempealeau", "COUNTY_FIPS": 55121, "TYPE_DESC": "HOSPITAL", "SUB_TYPE_DESC": "CRITICAL ACCESS HOSPITALS", "WI_LICENSE_NUM": 1019, "ASPEN_FACILITY_ID": "HSPLACU125", "MEDICARE_ID": "521316", "TYPE_CODE": "1", "FACILITY_TYPE_CODE": "14", "FACILITY_NAME": "GUNDERSEN TRI-COUNTY HOSPITAL AND CLINICS" }, "geometry": { "type": "Point", "coordinates": [ -91.318744, 44.364377 ] } },
{ "type": "Feature", "properties": { "OBJECTID": 94, "FACILITY_INTERNAL_ID": 6149, "ADDRESS": "600 Highland Ave", "ADDRESS_2": null, "CITY": "Madison", "STATE": "WI", "ZIP": 53792, "ZIP_4": 1, "LAT": 43.076334, "LON": -89.43075, "STATE_FIPS": 55, "COUNTY": "Dane", "COUNTY_FIPS": 55025, "TYPE_DESC": "HOSPITAL", "SUB_TYPE_DESC": "SHORT TERM", "WI_LICENSE_NUM": 125, "ASPEN_FACILITY_ID": "HSPLACU127", "MEDICARE_ID": "520098", "TYPE_CODE": "1", "FACILITY_TYPE_CODE": "11", "FACILITY_NAME": "UNIVERSITY OF WI  HOSPITALS & CLINICS AUTHORITY" }, "geometry": { "type": "Point", "coordinates": [ -89.43075, 43.076334 ] } },
{ "type": "Feature", "properties": { "OBJECTID": 95, "FACILITY_INTERNAL_ID": 6152, "ADDRESS": "1120 Pine St", "ADDRESS_2": null, "CITY": "Stanley", "STATE": "WI", "ZIP": 54768, "ZIP_4": 1297, "LAT": 44.953537, "LON": -90.918732, "STATE_FIPS": 55, "COUNTY": "Clark", "COUNTY_FIPS": 55019, "TYPE_DESC": "HOSPITAL", "SUB_TYPE_DESC": "CRITICAL ACCESS HOSPITALS", "WI_LICENSE_NUM": 1013, "ASPEN_FACILITY_ID": "HSPLACU131", "MEDICARE_ID": "521311", "TYPE_CODE": "1", "FACILITY_TYPE_CODE": "14", "FACILITY_NAME": "ASCENSION OUR LADY OF VICTORY HOSPITAL" }, "geometry": { "type": "Point", "coordinates": [ -90.918732, 44.953537 ] } },
{ "type": "Feature", "properties": { "OBJECTID": 96, "FACILITY_INTERNAL_ID": 6153, "ADDRESS": "125 Hospital Dr", "ADDRESS_2": null, "CITY": "Watertown", "STATE": "WI", "ZIP": 53098, "ZIP_4": 3303, "LAT": 43.199754, "LON": -88.696951, "STATE_FIPS": 55, "COUNTY": "Dodge", "COUNTY_FIPS": 55027, "TYPE_DESC": "HOSPITAL", "SUB_TYPE_DESC": "SHORT TERM", "WI_LICENSE_NUM": 105, "ASPEN_FACILITY_ID": "HSPLACU132", "MEDICARE_ID": "520116", "TYPE_CODE": "1", "FACILITY_TYPE_CODE": "11", "FACILITY_NAME": "WATERTOWN REGIONAL MEDICAL CENTER" }, "geometry": { "type": "Point", "coordinates": [ -88.696951, 43.199754 ] } },
{ "type": "Feature", "properties": { "OBJECTID": 97, "FACILITY_INTERNAL_ID": 6154, "ADDRESS": "620 W Brown St", "ADDRESS_2": null, "CITY": "Waupun", "STATE": "WI", "ZIP": 53963, "ZIP_4": 1702, "LAT": 43.631821, "LON": -88.745666, "STATE_FIPS": 55, "COUNTY": "Dodge", "COUNTY_FIPS": 55027, "TYPE_DESC": "HOSPITAL", "SUB_TYPE_DESC": "CRITICAL ACCESS HOSPITALS", "WI_LICENSE_NUM": 1031, "ASPEN_FACILITY_ID": "HSPLACU134", "MEDICARE_ID": "521327", "TYPE_CODE": "1", "FACILITY_TYPE_CODE": "14", "FACILITY_NAME": "WAUPUN MEMORIAL HOSPITAL" }, "geometry": { "type": "Point", "coordinates": [ -88.745666, 43.631821 ] } },
{ "type": "Feature", "properties": { "OBJECTID": 98, "FACILITY_INTERNAL_ID": 6155, "ADDRESS": "333 Pine Ridge Blvd", "ADDRESS_2": null, "CITY": "Wausau", "STATE": "WI", "ZIP": 54401, "ZIP_4": 4102, "LAT": 44.96588, "LON": -89.66825, "STATE_FIPS": 55, "COUNTY": "Marathon", "COUNTY_FIPS": 55073, "TYPE_DESC": "HOSPITAL", "SUB_TYPE_DESC": "SHORT TERM", "WI_LICENSE_NUM": 188, "ASPEN_FACILITY_ID": "HSPLACU135", "MEDICARE_ID": "520030", "TYPE_CODE": "1", "FACILITY_TYPE_CODE": "11", "FACILITY_NAME": "ASPIRUS WAUSAU HOSPITAL" }, "geometry": { "type": "Point", "coordinates": [ -89.66825, 44.96588 ] } },
{ "type": "Feature", "properties": { "OBJECTID": 99, "FACILITY_INTERNAL_ID": 7925, "ADDRESS": "310 W Main St", "ADDRESS_2": null, "CITY": "Sparta", "STATE": "WI", "ZIP": 54656, "ZIP_4": 2170, "LAT": 43.944601, "LON": -90.81411, "STATE_FIPS": 55, "COUNTY": "Monroe", "COUNTY_FIPS": 55081, "TYPE_DESC": "HOSPITAL", "SUB_TYPE_DESC": "CRITICAL ACCESS HOSPITALS", "WI_LICENSE_NUM": 1009, "ASPEN_FACILITY_ID": "HSPLCRI2", "MEDICARE_ID": "521305", "TYPE_CODE": "1", "FACILITY_TYPE_CODE": "14", "FACILITY_NAME": "MAYO CLINIC HLTH SYSTM FRANCISCAN HLTHCARE SPARTA" }, "geometry": { "type": "Point", "coordinates": [ -90.81411, 43.944601 ] } },
{ "type": "Feature", "properties": { "OBJECTID": 100, "FACILITY_INTERNAL_ID": 7927, "ADDRESS": "13025 8th St", "ADDRESS_2": null, "CITY": "Osseo", "STATE": "WI", "ZIP": 54758, "ZIP_4": 7634, "LAT": 44.577608, "LON": -91.212713, "STATE_FIPS": 55, "COUNTY": "Trempealeau", "COUNTY_FIPS": 55121, "TYPE_DESC": "HOSPITAL", "SUB_TYPE_DESC": "CRITICAL ACCESS HOSPITALS", "WI_LICENSE_NUM": 1003, "ASPEN_FACILITY_ID": "HSPLCRI4", "MEDICARE_ID": "521302", "TYPE_CODE": "1", "FACILITY_TYPE_CODE": "14", "FACILITY_NAME": "MAYO CLINIC HEALTH SYSTEM-OAKRIDGE" }, "geometry": { "type": "Point", "coordinates": [ -91.212713, 44.577608 ] } },
{ "type": "Feature", "properties": { "OBJECTID": 101, "FACILITY_INTERNAL_ID": 7928, "ADDRESS": "601 Grove Ave", "ADDRESS_2": null, "CITY": "Wild Rose", "STATE": "WI", "ZIP": 54984, "ZIP_4": 6903, "LAT": 44.183494, "LON": -89.246073, "STATE_FIPS": 55, "COUNTY": "Waushara", "COUNTY_FIPS": 55137, "TYPE_DESC": "HOSPITAL", "SUB_TYPE_DESC": "CRITICAL ACCESS HOSPITALS", "WI_LICENSE_NUM": 1004, "ASPEN_FACILITY_ID": "HSPLCRI5", "MEDICARE_ID": "521303", "TYPE_CODE": "1", "FACILITY_TYPE_CODE": "14", "FACILITY_NAME": "THEDACARE MEDICAL CENTER - WILD ROSE INC" }, "geometry": { "type": "Point", "coordinates": [ -89.246073, 44.183494 ] } },
{ "type": "Feature", "properties": { "OBJECTID": 102, "FACILITY_INTERNAL_ID": 8561, "ADDRESS": "1220 3rd Ave W", "ADDRESS_2": null, "CITY": "Durand", "STATE": "WI", "ZIP": 54736, "ZIP_4": 1600, "LAT": 44.620464, "LON": -91.962322, "STATE_FIPS": 55, "COUNTY": "Pepin", "COUNTY_FIPS": 55091, "TYPE_DESC": "HOSPITAL", "SUB_TYPE_DESC": "CRITICAL ACCESS HOSPITALS", "WI_LICENSE_NUM": 1008, "ASPEN_FACILITY_ID": "HSPLCRI8", "MEDICARE_ID": "521307", "TYPE_CODE": "1", "FACILITY_TYPE_CODE": "14", "FACILITY_NAME": "CHIPPEWA VALLEY HOSPITAL" }, "geometry": { "type": "Point", "coordinates": [ -91.962322, 44.620464 ] } },
{ "type": "Feature", "properties": { "OBJECTID": 103, "FACILITY_INTERNAL_ID": 8881, "ADDRESS": "265 Griffin St E", "ADDRESS_2": null, "CITY": "Amery", "STATE": "WI", "ZIP": 54001, "ZIP_4": 1439, "LAT": 45.296857, "LON": -92.360975, "STATE_FIPS": 55, "COUNTY": "Polk", "COUNTY_FIPS": 55095, "TYPE_DESC": "HOSPITAL", "SUB_TYPE_DESC": "CRITICAL ACCESS HOSPITALS", "WI_LICENSE_NUM": 1010, "ASPEN_FACILITY_ID": "HSPLCRI10", "MEDICARE_ID": "521308", "TYPE_CODE": "1", "FACILITY_TYPE_CODE": "14", "FACILITY_NAME": "AMERY HOSPITAL & CLINIC" }, "geometry": { "type": "Point", "coordinates": [ -92.360975, 45.296857 ] } },
{ "type": "Feature", "properties": { "OBJECTID": 104, "FACILITY_INTERNAL_ID": 10461, "ADDRESS": "2845 Greenbrier Rd", "ADDRESS_2": null, "CITY": "Green Bay", "STATE": "WI", "ZIP": 54311, "ZIP_4": 6519, "LAT": 44.475061, "LON": -87.940672, "STATE_FIPS": 55, "COUNTY": "Brown", "COUNTY_FIPS": 55009, "TYPE_DESC": "HOSPITAL", "SUB_TYPE_DESC": "SHORT TERM", "WI_LICENSE_NUM": 301, "ASPEN_FACILITY_ID": "HSPLACU142", "MEDICARE_ID": "520193", "TYPE_CODE": "1", "FACILITY_TYPE_CODE": "11", "FACILITY_NAME": "AURORA BAYCARE MEDICAL CTR" }, "geometry": { "type": "Point", "coordinates": [ -87.940672, 44.475061 ] } },
{ "type": "Feature", "properties": { "OBJECTID": 105, "FACILITY_INTERNAL_ID": 10480, "ADDRESS": "614 Memorial Dr", "ADDRESS_2": null, "CITY": "Chilton", "STATE": "WI", "ZIP": 53014, "ZIP_4": 1568, "LAT": 44.02524, "LON": -88.15277, "STATE_FIPS": 55, "COUNTY": "Calumet", "COUNTY_FIPS": 55015, "TYPE_DESC": "HOSPITAL", "SUB_TYPE_DESC": "CRITICAL ACCESS HOSPITALS", "WI_LICENSE_NUM": 1020, "ASPEN_FACILITY_ID": "HSPLCRI11", "MEDICARE_ID": "521317", "TYPE_CODE": "1", "FACILITY_TYPE_CODE": "14", "FACILITY_NAME": "ASCENSION CALUMET HOSPITAL" }, "geometry": { "type": "Point", "coordinates": [ -88.15277, 44.02524 ] } },
{ "type": "Feature", "properties": { "OBJECTID": 106, "FACILITY_INTERNAL_ID": 15449, "ADDRESS": "1000 Oakleaf Way", "ADDRESS_2": null, "CITY": "Altoona", "STATE": "WI", "ZIP": 54720, "ZIP_4": 2246, "LAT": 44.81541, "LON": -91.452833, "STATE_FIPS": 55, "COUNTY": "Eau Claire", "COUNTY_FIPS": 55035, "TYPE_DESC": "HOSPITAL", "SUB_TYPE_DESC": "SHORT TERM", "WI_LICENSE_NUM": 303, "ASPEN_FACILITY_ID": "HSPLACU144", "MEDICARE_ID": "520196", "TYPE_CODE": "1", "FACILITY_TYPE_CODE": "11", "FACILITY_NAME": "OAKLEAF SURGICAL HOSPITAL" }, "geometry": { "type": "Point", "coordinates": [ -91.452833, 44.81541 ] } },
{ "type": "Feature", "properties": { "OBJECTID": 107, "FACILITY_INTERNAL_ID": 23121, "ADDRESS": "130 2nd St", "ADDRESS_2": null, "CITY": "Neenah", "STATE": "WI", "ZIP": 54956, "ZIP_4": 2883, "LAT": 44.187489, "LON": -88.453849, "STATE_FIPS": 55, "COUNTY": "Winnebago", "COUNTY_FIPS": 55139, "TYPE_DESC": "HOSPITAL", "SUB_TYPE_DESC": "CHILDRENS", "WI_LICENSE_NUM": 1005, "ASPEN_FACILITY_ID": "HSPLACU138", "MEDICARE_ID": "523302", "TYPE_CODE": "1", "FACILITY_TYPE_CODE": "16", "FACILITY_NAME": "CHILDRENS HOSPITAL OF WISCONSIN FOX VALLEY" }, "geometry": { "type": "Point", "coordinates": [ -88.453849, 44.187489 ] } },
{ "type": "Feature", "properties": { "OBJECTID": 108, "FACILITY_INTERNAL_ID": 45712, "ADDRESS": "855 N Westhaven Dr", "ADDRESS_2": null, "CITY": "Oshkosh", "STATE": "WI", "ZIP": 54904, "ZIP_4": 7668, "LAT": 44.02712, "LON": -88.59538, "STATE_FIPS": 55, "COUNTY": "Winnebago", "COUNTY_FIPS": 55139, "TYPE_DESC": "HOSPITAL", "SUB_TYPE_DESC": "SHORT TERM", "WI_LICENSE_NUM": 307, "ASPEN_FACILITY_ID": "HSPLACU148", "MEDICARE_ID": "520198", "TYPE_CODE": "1", "FACILITY_TYPE_CODE": "11", "FACILITY_NAME": "AURORA MEDICAL CTR OSHKOSH" }, "geometry": { "type": "Point", "coordinates": [ -88.59538, 44.02712 ] } },
{ "type": "Feature", "properties": { "OBJECTID": 109, "FACILITY_INTERNAL_ID": 80161, "ADDRESS": "3400 Ministry Pkwy", "ADDRESS_2": null, "CITY": "Weston", "STATE": "WI", "ZIP": 54476, "ZIP_4": 5220, "LAT": 44.890376, "LON": -89.580014, "STATE_FIPS": 55, "COUNTY": "Marathon", "COUNTY_FIPS": 55073, "TYPE_DESC": "HOSPITAL", "SUB_TYPE_DESC": "SHORT TERM", "WI_LICENSE_NUM": 310, "ASPEN_FACILITY_ID": "HSPLACU150", "MEDICARE_ID": "520202", "TYPE_CODE": "1", "FACILITY_TYPE_CODE": "11", "FACILITY_NAME": "ASCENSION ST CLARES HOSPITAL" }, "geometry": { "type": "Point", "coordinates": [ -89.580014, 44.890376 ] } },
{ "type": "Feature", "properties": { "OBJECTID": 110, "FACILITY_INTERNAL_ID": 85737, "ADDRESS": "5000 W National Ave", "ADDRESS_2": null, "CITY": "Milwaukee", "STATE": "WI", "ZIP": 53295, "ZIP_4": 1, "LAT": 43.020975, "LON": -87.976052, "STATE_FIPS": 55, "COUNTY": "Milwaukee", "COUNTY_FIPS": 55079, "TYPE_DESC": "HOSPITAL", "SUB_TYPE_DESC": "NON-PARTICIPATING HOSPITALS", "WI_LICENSE_NUM": null, "ASPEN_FACILITY_ID": "HSPLACU168", "MEDICARE_ID": "52003F", "TYPE_CODE": "1", "FACILITY_TYPE_CODE": "19", "FACILITY_NAME": "CLEMENT J ZABLOCKI VETERANS AFFAIRS" }, "geometry": { "type": "Point", "coordinates": [ -87.976052, 43.020975 ] } },
{ "type": "Feature", "properties": { "OBJECTID": 111, "FACILITY_INTERNAL_ID": 86108, "ADDRESS": "500 E Veterans St", "ADDRESS_2": null, "CITY": "Tomah", "STATE": "WI", "ZIP": 54660, "ZIP_4": 3105, "LAT": 44.004467, "LON": -90.495282, "STATE_FIPS": 55, "COUNTY": "Monroe", "COUNTY_FIPS": 55081, "TYPE_DESC": "HOSPITAL", "SUB_TYPE_DESC": "NON-PARTICIPATING HOSPITALS", "WI_LICENSE_NUM": null, "ASPEN_FACILITY_ID": "HSPLACU207", "MEDICARE_ID": "52002F", "TYPE_CODE": "1", "FACILITY_TYPE_CODE": "19", "FACILITY_NAME": "TOMAH VA MEDICAL CENTER" }, "geometry": { "type": "Point", "coordinates": [ -90.495282, 44.004467 ] } },
{ "type": "Feature", "properties": { "OBJECTID": 112, "FACILITY_INTERNAL_ID": 86410, "ADDRESS": "2500 Overlook Ter", "ADDRESS_2": null, "CITY": "Madison", "STATE": "WI", "ZIP": 53705, "ZIP_4": 2254, "LAT": 43.074375, "LON": -89.430846, "STATE_FIPS": 55, "COUNTY": "Dane", "COUNTY_FIPS": 55025, "TYPE_DESC": "HOSPITAL", "SUB_TYPE_DESC": "NON-PARTICIPATING HOSPITALS", "WI_LICENSE_NUM": null, "ASPEN_FACILITY_ID": "HSPLACU214", "MEDICARE_ID": "52004F", "TYPE_CODE": "1", "FACILITY_TYPE_CODE": "19", "FACILITY_NAME": "WILLIAM S MIDDLETON MEMORIAL VETERANS HOSPITAL" }, "geometry": { "type": "Point", "coordinates": [ -89.430846, 43.074375 ] } },
{ "type": "Feature", "properties": { "OBJECTID": 113, "FACILITY_INTERNAL_ID": 91694, "ADDRESS": "1110 7th Ave", "ADDRESS_2": null, "CITY": "Cumberland", "STATE": "WI", "ZIP": 54829, "ZIP_4": 9138, "LAT": 45.53088, "LON": -92.02871, "STATE_FIPS": 55, "COUNTY": "Barron", "COUNTY_FIPS": 55005, "TYPE_DESC": "HOSPITAL", "SUB_TYPE_DESC": "CRITICAL ACCESS HOSPITALS", "WI_LICENSE_NUM": 1058, "ASPEN_FACILITY_ID": "HSPLACU217", "MEDICARE_ID": "521353", "TYPE_CODE": "1", "FACILITY_TYPE_CODE": "14", "FACILITY_NAME": "CUMBERLAND MEMORIAL HOSPITAL" }, "geometry": { "type": "Point", "coordinates": [ -92.02871, 45.53088 ] } },
{ "type": "Feature", "properties": { "OBJECTID": 114, "FACILITY_INTERNAL_ID": 126061, "ADDRESS": "1400 Eastside Rd", "ADDRESS_2": null, "CITY": "Platteville", "STATE": "WI", "ZIP": 53818, "ZIP_4": 9800, "LAT": 42.719888, "LON": -90.457895, "STATE_FIPS": 55, "COUNTY": "Grant", "COUNTY_FIPS": 55043, "TYPE_DESC": "HOSPITAL", "SUB_TYPE_DESC": "CRITICAL ACCESS HOSPITALS", "WI_LICENSE_NUM": 1059, "ASPEN_FACILITY_ID": "HSPLACU219", "MEDICARE_ID": "521354", "TYPE_CODE": "1", "FACILITY_TYPE_CODE": "14", "FACILITY_NAME": "SOUTHWEST HEALTH CENTER" }, "geometry": { "type": "Point", "coordinates": [ -90.457895, 42.719888 ] } },
{ "type": "Feature", "properties": { "OBJECTID": 115, "FACILITY_INTERNAL_ID": 126342, "ADDRESS": "820 Arbutus Ave", "ADDRESS_2": null, "CITY": "Oconto", "STATE": "WI", "ZIP": 54153, "ZIP_4": 2004, "LAT": 44.89624, "LON": -87.86584, "STATE_FIPS": 55, "COUNTY": "Oconto", "COUNTY_FIPS": 55083, "TYPE_DESC": "HOSPITAL", "SUB_TYPE_DESC": "CRITICAL ACCESS HOSPITALS", "WI_LICENSE_NUM": 1061, "ASPEN_FACILITY_ID": "HSPLCRI17", "MEDICARE_ID": "521356", "TYPE_CODE": "1", "FACILITY_TYPE_CODE": "14", "FACILITY_NAME": "BELLIN HEALTH OCONTO HOSPITAL" }, "geometry": { "type": "Point", "coordinates": [ -87.86584, 44.89624 ] } },
{ "type": "Feature", "properties": { "OBJECTID": 116, "FACILITY_INTERNAL_ID": 128498, "ADDRESS": "N2950 State Road 67", "ADDRESS_2": null, "CITY": "Lake Geneva", "STATE": "WI", "ZIP": 53147, "ZIP_4": 2655, "LAT": 42.598083, "LON": -88.539668, "STATE_FIPS": 55, "COUNTY": "Walworth", "COUNTY_FIPS": 55127, "TYPE_DESC": "HOSPITAL", "SUB_TYPE_DESC": "CRITICAL ACCESS HOSPITALS", "WI_LICENSE_NUM": 1062, "ASPEN_FACILITY_ID": "HSPLCRI18", "MEDICARE_ID": "521357", "TYPE_CODE": "1", "FACILITY_TYPE_CODE": "14", "FACILITY_NAME": "MERCY WALWORTH HOSPITAL & MEDICAL CENTER" }, "geometry": { "type": "Point", "coordinates": [ -88.539668, 42.598083 ] } },
{ "type": "Feature", "properties": { "OBJECTID": 117, "FACILITY_INTERNAL_ID": 128646, "ADDRESS": "225 Memorial Dr", "ADDRESS_2": null, "CITY": "Berlin", "STATE": "WI", "ZIP": 54923, "ZIP_4": 1243, "LAT": 43.978508, "LON": -88.941152, "STATE_FIPS": 55, "COUNTY": "Green Lake", "COUNTY_FIPS": 55047, "TYPE_DESC": "HOSPITAL", "SUB_TYPE_DESC": "CRITICAL ACCESS HOSPITALS", "WI_LICENSE_NUM": 1060, "ASPEN_FACILITY_ID": "HSPLCRI19", "MEDICARE_ID": "521355", "TYPE_CODE": "1", "FACILITY_TYPE_CODE": "14", "FACILITY_NAME": "THEDACARE MEDICAL CENTER - BERLIN INC" }, "geometry": { "type": "Point", "coordinates": [ -88.941152, 43.978508 ] } },
{ "type": "Feature", "properties": { "OBJECTID": 118, "FACILITY_INTERNAL_ID": 143920, "ADDRESS": "323 S 18th Ave", "ADDRESS_2": null, "CITY": "Sturgeon Bay", "STATE": "WI", "ZIP": 54235, "ZIP_4": 1401, "LAT": 44.83266, "LON": -87.35363, "STATE_FIPS": 55, "COUNTY": "Door", "COUNTY_FIPS": 55029, "TYPE_DESC": "HOSPITAL", "SUB_TYPE_DESC": "CRITICAL ACCESS HOSPITALS", "WI_LICENSE_NUM": 1064, "ASPEN_FACILITY_ID": "HSPLCRI20", "MEDICARE_ID": "521358", "TYPE_CODE": "1", "FACILITY_TYPE_CODE": "14", "FACILITY_NAME": "DOOR COUNTY MEDICAL CENTER" }, "geometry": { "type": "Point", "coordinates": [ -87.35363, 44.83266 ] } },
{ "type": "Feature", "properties": { "OBJECTID": 119, "FACILITY_INTERNAL_ID": 144976, "ADDRESS": "19333 W North Ave", "ADDRESS_2": null, "CITY": "Brookfield", "STATE": "WI", "ZIP": 53045, "ZIP_4": 4132, "LAT": 43.059053, "LON": -88.154742, "STATE_FIPS": 55, "COUNTY": "Waukesha", "COUNTY_FIPS": 55133, "TYPE_DESC": "HOSPITAL SATELLITE LOCATIONS", "SUB_TYPE_DESC": "HOSPITAL SATELLITE LOCATIONS", "WI_LICENSE_NUM": null, "ASPEN_FACILITY_ID": "HSPSAT007", "MEDICARE_ID": "NULL", "TYPE_CODE": "HS", "FACILITY_TYPE_CODE": "HS1", "FACILITY_NAME": "ASCENSION SE WISCONSIN HOSPITAL - ELMBROOK CAMPUS" }, "geometry": { "type": "Point", "coordinates": [ -88.154742, 43.059053 ] } },
{ "type": "Feature", "properties": { "OBJECTID": 120, "FACILITY_INTERNAL_ID": 144978, "ADDRESS": "5900 S Lake Dr", "ADDRESS_2": null, "CITY": "Cudahy", "STATE": "WI", "ZIP": 53110, "ZIP_4": 3171, "LAT": 42.936488, "LON": -87.851332, "STATE_FIPS": 55, "COUNTY": "Milwaukee", "COUNTY_FIPS": 55079, "TYPE_DESC": "HOSPITAL SATELLITE LOCATIONS", "SUB_TYPE_DESC": "HOSPITAL SATELLITE LOCATIONS", "WI_LICENSE_NUM": null, "ASPEN_FACILITY_ID": "HSPSAT008", "MEDICARE_ID": "NULL", "TYPE_CODE": "HS", "FACILITY_TYPE_CODE": "HS2", "FACILITY_NAME": "AURORA ST LUKES MED CTR SOUTH SHORE" }, "geometry": { "type": "Point", "coordinates": [ -87.851332, 42.936488 ] } },
{ "type": "Feature", "properties": { "OBJECTID": 121, "FACILITY_INTERNAL_ID": 288571, "ADDRESS": "10101 S 27th St", "ADDRESS_2": null, "CITY": "Franklin", "STATE": "WI", "ZIP": 53132, "ZIP_4": 7209, "LAT": 42.860052, "LON": -87.954075, "STATE_FIPS": 55, "COUNTY": "Milwaukee", "COUNTY_FIPS": 55078, "TYPE_DESC": "HOSPITAL", "SUB_TYPE_DESC": "SHORT TERM", "WI_LICENSE_NUM": 1070, "ASPEN_FACILITY_ID": "HSPLACU992", "MEDICARE_ID": "520204", "TYPE_CODE": "1", "FACILITY_TYPE_CODE": "11", "FACILITY_NAME": "MIDWEST ORTHOPEDIC SPECIALTY HOSPITAL" }, "geometry": { "type": "Point", "coordinates": [ -87.954075, 42.860052 ] } },
{ "type": "Feature", "properties": { "OBJECTID": 122, "FACILITY_INTERNAL_ID": 318634, "ADDRESS": "36500 Aurora Dr", "ADDRESS_2": null, "CITY": "Summit", "STATE": "WI", "ZIP": 53066, "ZIP_4": 4899, "LAT": 43.066, "LON": -88.46745, "STATE_FIPS": 55, "COUNTY": "Waukesha", "COUNTY_FIPS": 55133, "TYPE_DESC": "HOSPITAL", "SUB_TYPE_DESC": "SHORT TERM", "WI_LICENSE_NUM": 316, "ASPEN_FACILITY_ID": "HSPLACU220", "MEDICARE_ID": "520206", "TYPE_CODE": "1", "FACILITY_TYPE_CODE": "11", "FACILITY_NAME": "AURORA MEDICAL CENTER SUMMIT" }, "geometry": { "type": "Point", "coordinates": [ -88.46745, 43.066 ] } },
{ "type": "Feature", "properties": { "OBJECTID": 123, "FACILITY_INTERNAL_ID": 341055, "ADDRESS": "945 North 12th Street ", "ADDRESS_2": null, "CITY": "Milwaukee", "STATE": "WI", "ZIP": 53233, "ZIP_4": null, "LAT": 43.042617, "LON": -87.927681, "STATE_FIPS": 55, "COUNTY": "Milwaukee", "COUNTY_FIPS": 55079, "TYPE_DESC": "HOSPITAL", "SUB_TYPE_DESC": "HOSPITAL SATELLITE LOCATIONS", "WI_LICENSE_NUM": null, "ASPEN_FACILITY_ID": "HSPSAT016", "MEDICARE_ID": "NULL", "TYPE_CODE": "HS", "FACILITY_TYPE_CODE": "HS1", "FACILITY_NAME": "AURORA SINAI MEDICAL CENTER" }, "geometry": { "type": "Point", "coordinates": [ -87.927681, 43.042617 ] } },
{ "type": "Feature", "properties": { "OBJECTID": 124, "FACILITY_INTERNAL_ID": 350214, "ADDRESS": "975 Port Washington Rd", "ADDRESS_2": null, "CITY": "Grafton", "STATE": "WI", "ZIP": 53024, "ZIP_4": 9201, "LAT": 43.323784, "LON": -87.928106, "STATE_FIPS": 55, "COUNTY": "Ozaukee", "COUNTY_FIPS": 55089, "TYPE_DESC": "HOSPITAL", "SUB_TYPE_DESC": "SHORT TERM", "WI_LICENSE_NUM": 317, "ASPEN_FACILITY_ID": "HSPLACU221", "MEDICARE_ID": "520207", "TYPE_CODE": "1", "FACILITY_TYPE_CODE": "11", "FACILITY_NAME": "AURORA MEDICAL CENTER" }, "geometry": { "type": "Point", "coordinates": [ -87.928106, 43.323784 ] } },
{ "type": "Feature", "properties": { "OBJECTID": 125, "FACILITY_INTERNAL_ID": 373877, "ADDRESS": "3400 E Racine St", "ADDRESS_2": null, "CITY": "Janesville", "STATE": "WI", "ZIP": 53546, "ZIP_4": 2344, "LAT": 42.668953, "LON": -88.977136, "STATE_FIPS": 55, "COUNTY": "Rock", "COUNTY_FIPS": 55105, "TYPE_DESC": "HOSPITAL", "SUB_TYPE_DESC": "SHORT TERM", "WI_LICENSE_NUM": 318, "ASPEN_FACILITY_ID": "HSPLACU994", "MEDICARE_ID": "520208", "TYPE_CODE": "1", "FACILITY_TYPE_CODE": "11", "FACILITY_NAME": "SSM HEALTH ST MARY'S HOSPITAL - JANESVILLE" }, "geometry": { "type": "Point", "coordinates": [ -88.977136, 42.668953 ] } },
{ "type": "Feature", "properties": { "OBJECTID": 126, "FACILITY_INTERNAL_ID": 573292, "ADDRESS": "2310 Craig Rd", "ADDRESS_2": null, "CITY": "Eau Claire", "STATE": "WI", "ZIP": 54701, "ZIP_4": 6128, "LAT": 44.794301, "LON": -91.519855, "STATE_FIPS": 55, "COUNTY": "Eau Claire", "COUNTY_FIPS": 55035, "TYPE_DESC": "HOSPITAL", "SUB_TYPE_DESC": "SHORT TERM", "WI_LICENSE_NUM": 323, "ASPEN_FACILITY_ID": "HSPLACU222", "MEDICARE_ID": null, "TYPE_CODE": "1", "FACILITY_TYPE_CODE": "11", "FACILITY_NAME": "MARSHFIELD MEDICAL CENTER - EAU CLAIRE" }, "geometry": { "type": "Point", "coordinates": [ -91.519855, 44.794301 ] } },
{ "type": "Feature", "properties": { "OBJECTID": 127, "FACILITY_INTERNAL_ID": 573560, "ADDRESS": "500 S Oakwood Rd", "ADDRESS_2": null, "CITY": "Oshkosh", "STATE": "WI", "ZIP": 54901, "ZIP_4": 7944, "LAT": 44.013243, "LON": -88.600539, "STATE_FIPS": 55, "COUNTY": "Winnebago", "COUNTY_FIPS": 55139, "TYPE_DESC": "HOSPITAL SATELLITE LOCATIONS", "SUB_TYPE_DESC": "HOSPITAL SATELLITE LOCATIONS", "WI_LICENSE_NUM": null, "ASPEN_FACILITY_ID": "HSPSAT019", "MEDICARE_ID": "NULL", "TYPE_CODE": "HS", "FACILITY_TYPE_CODE": "HS1", "FACILITY_NAME": "ASCENSION NE WISCONSIN-MERCY CAMPUS" }, "geometry": { "type": "Point", "coordinates": [ -88.600539, 44.013243 ] } },
{ "type": "Feature", "properties": { "OBJECTID": 128, "FACILITY_INTERNAL_ID": 249584, "ADDRESS": "230 Deronda St", "ADDRESS_2": null, "CITY": "Amery", "STATE": "WI", "ZIP": 54001, "ZIP_4": 1412, "LAT": 45.302453, "LON": -92.365801, "STATE_FIPS": 55, "COUNTY": "Polk", "COUNTY_FIPS": 55095, "TYPE_DESC": "HOSPITAL SATELLITE LOCATIONS", "SUB_TYPE_DESC": "HOSPITAL SATELLITE LOCATIONS", "WI_LICENSE_NUM": 1069, "ASPEN_FACILITY_ID": "HSPSAT014", "MEDICARE_ID": null, "TYPE_CODE": "HS", "FACILITY_TYPE_CODE": "HS1", "FACILITY_NAME": "AMERY HOSPITAL & CLINIC BEHAVIORAL HEALTH CENTER" }, "geometry": { "type": "Point", "coordinates": [ -92.365800999704987, 45.302452999938268 ] } },
{ "type": "Feature", "properties": { "OBJECTID": 129, "FACILITY_INTERNAL_ID": 144974, "ADDRESS": "1320 Wisconsin Ave", "ADDRESS_2": null, "CITY": "Racine", "STATE": "WI", "ZIP": 53403, "ZIP_4": 1978, "LAT": 42.716365, "LON": -87.784281, "STATE_FIPS": 55, "COUNTY": "Racine", "COUNTY_FIPS": 55101, "TYPE_DESC": "HOSPITAL SATELLITE LOCATIONS", "SUB_TYPE_DESC": "HOSPITAL SATELLITE LOCATIONS", "WI_LICENSE_NUM": 154, "ASPEN_FACILITY_ID": "HSPSAT006", "MEDICARE_ID": null, "TYPE_CODE": "HS", "FACILITY_TYPE_CODE": "HS1", "FACILITY_NAME": "ASCENSION ALL SAINTS HOSPITAL" }, "geometry": { "type": "Point", "coordinates": [ -87.784281000236774, 42.716364999861675 ] } },
{ "type": "Feature", "properties": { "OBJECTID": 130, "FACILITY_INTERNAL_ID": 573546, "ADDRESS": "10101 S 27th St", "ADDRESS_2": null, "CITY": "Franklin", "STATE": "WI", "ZIP": 53132, "ZIP_4": 7209, "LAT": 42.85984, "LON": -87.953995, "STATE_FIPS": 55, "COUNTY": "Milwaukee", "COUNTY_FIPS": 55079, "TYPE_DESC": "HOSPITAL SATELLITE LOCATIONS", "SUB_TYPE_DESC": "HOSPITAL SATELLITE LOCATIONS", "WI_LICENSE_NUM": 314, "ASPEN_FACILITY_ID": "HSPSAT018", "MEDICARE_ID": null, "TYPE_CODE": "HS", "FACILITY_TYPE_CODE": "HS1", "FACILITY_NAME": "ASCENSION SE WISCONSIN HOSPITAL - FRANKLIN CAMPUS" }, "geometry": { "type": "Point", "coordinates": [ -87.953994999693421, 42.859840000084603 ] } },
{ "type": "Feature", "properties": { "OBJECTID": 131, "FACILITY_INTERNAL_ID": 588328, "ADDRESS": "5409 Vern Holmes Dr", "ADDRESS_2": null, "CITY": "Stevens Point", "STATE": "WI", "ZIP": 54482, "ZIP_4": 8853, "LAT": 44.498909, "LON": -89.516567, "STATE_FIPS": 55, "COUNTY": "Portage", "COUNTY_FIPS": 55097, "TYPE_DESC": "HOSPITAL SATELLITE LOCATIONS", "SUB_TYPE_DESC": "HOSPITAL SATELLITE LOCATIONS", "WI_LICENSE_NUM": 324, "ASPEN_FACILITY_ID": "HSPSAT020", "MEDICARE_ID": null, "TYPE_CODE": "HS", "FACILITY_TYPE_CODE": "HS1", "FACILITY_NAME": "ASPIRUS STEVENS POINT HOSPITAL" }, "geometry": { "type": "Point", "coordinates": [ -89.516566999982416, 44.498909000184284 ] } },
{ "type": "Feature", "properties": { "OBJECTID": 132, "FACILITY_INTERNAL_ID": 144983, "ADDRESS": "9200 W Wisconsin Ave", "ADDRESS_2": null, "CITY": "Milwaukee", "STATE": "WI", "ZIP": 53226, "ZIP_4": 3522, "LAT": 43.038688, "LON": -88.026479, "STATE_FIPS": 55, "COUNTY": "Milwaukee", "COUNTY_FIPS": 55079, "TYPE_DESC": "HOSPITAL SATELLITE LOCATIONS", "SUB_TYPE_DESC": "HOSPITAL SATELLITE LOCATIONS", "WI_LICENSE_NUM": 279, "ASPEN_FACILITY_ID": "HSPSAT010", "MEDICARE_ID": null, "TYPE_CODE": "HS", "FACILITY_TYPE_CODE": "HS1", "FACILITY_NAME": "FROEDTERT MEMORIAL LUTHERAN HOSPITAL CHW" }, "geometry": { "type": "Point", "coordinates": [ -88.026478999956964, 43.03868799987508 ] } },
{ "type": "Feature", "properties": { "OBJECTID": 133, "FACILITY_INTERNAL_ID": 144962, "ADDRESS": "1701 Dousman St", "ADDRESS_2": null, "CITY": "Green Bay", "STATE": "WI", "ZIP": 54303, "ZIP_4": 3211, "LAT": 44.533556, "LON": -88.063109, "STATE_FIPS": 55, "COUNTY": "Brown", "COUNTY_FIPS": 55009, "TYPE_DESC": "HOSPITAL SATELLITE LOCATIONS", "SUB_TYPE_DESC": "HOSPITAL SATELLITE LOCATIONS", "WI_LICENSE_NUM": 259, "ASPEN_FACILITY_ID": "HSPSAT001", "MEDICARE_ID": null, "TYPE_CODE": "HS", "FACILITY_TYPE_CODE": "HS1", "FACILITY_NAME": "LIBERTAS GREEN BAY" }, "geometry": { "type": "Point", "coordinates": [ -88.06310900042628, 44.533555999760864 ] } },
{ "type": "Feature", "properties": { "OBJECTID": 134, "FACILITY_INTERNAL_ID": 592494, "ADDRESS": "9576 State Highway 70", "ADDRESS_2": null, "CITY": "Minocqua", "STATE": "WI", "ZIP": 54548, "ZIP_4": 9067, "LAT": 45.89022, "LON": -89.710975, "STATE_FIPS": 55, "COUNTY": "Oneida", "COUNTY_FIPS": 55085, "TYPE_DESC": "HOSPITAL", "SUB_TYPE_DESC": "SHORT TERM", "WI_LICENSE_NUM": 325, "ASPEN_FACILITY_ID": "HSPLACU223", "MEDICARE_ID": null, "TYPE_CODE": "1", "FACILITY_TYPE_CODE": "11", "FACILITY_NAME": "MARSHFIELD MEDICAL CENTER - MINOCQUA" }, "geometry": { "type": "Point", "coordinates": [ -89.710975000286609, 45.89022000016157 ] } },
{ "type": "Feature", "properties": { "OBJECTID": 135, "FACILITY_INTERNAL_ID": 9815, "ADDRESS": "475 W River Woods Pkwy", "ADDRESS_2": null, "CITY": "Glendale", "STATE": "WI", "ZIP": 53212, "ZIP_4": 1081, "LAT": 43.097222, "LON": -87.911481, "STATE_FIPS": 55, "COUNTY": "Milwaukee", "COUNTY_FIPS": 55079, "TYPE_DESC": "HOSPITAL", "SUB_TYPE_DESC": "SHORT TERM", "WI_LICENSE_NUM": 1006, "ASPEN_FACILITY_ID": "HSPLACU140", "MEDICARE_ID": "520194", "TYPE_CODE": "1", "FACILITY_TYPE_CODE": "11", "FACILITY_NAME": "ORTHOPAEDIC HOSPITAL OF WISCONSIN" }, "geometry": { "type": "Point", "coordinates": [ -87.911480999977158, 43.097222000048461 ] } },
{ "type": "Feature", "properties": { "OBJECTID": 136, "FACILITY_INTERNAL_ID": 509174, "ADDRESS": "4600 W Schroeder Dr", "ADDRESS_2": null, "CITY": "Brown Deer", "STATE": "WI", "ZIP": 53223, "ZIP_4": 6458, "LAT": 43.187319, "LON": -87.968094, "STATE_FIPS": 55, "COUNTY": "Milwaukee", "COUNTY_FIPS": 55079, "TYPE_DESC": "HOSPITAL SATELLITE LOCATIONS", "SUB_TYPE_DESC": "HOSPITAL SATELLITE LOCATIONS", "WI_LICENSE_NUM": 320, "ASPEN_FACILITY_ID": "HSPSAT017", "MEDICARE_ID": null, "TYPE_CODE": "HS", "FACILITY_TYPE_CODE": "HS1", "FACILITY_NAME": "ROGERS MEMORIAL HOSPITAL" }, "geometry": { "type": "Point", "coordinates": [ -87.96809399968717, 43.187318999985521 ] } },
{ "type": "Feature", "properties": { "OBJECTID": 137, "FACILITY_INTERNAL_ID": 144987, "ADDRESS": "11101 W Lincoln Ave", "ADDRESS_2": null, "CITY": "West Allis", "STATE": "WI", "ZIP": 53227, "ZIP_4": 1133, "LAT": 43.001287, "LON": -88.051321, "STATE_FIPS": 55, "COUNTY": "Milwaukee", "COUNTY_FIPS": 55079, "TYPE_DESC": "HOSPITAL SATELLITE LOCATIONS", "SUB_TYPE_DESC": "HOSPITAL SATELLITE LOCATIONS", "WI_LICENSE_NUM": 751, "ASPEN_FACILITY_ID": "HSPSAT012", "MEDICARE_ID": null, "TYPE_CODE": "HS", "FACILITY_TYPE_CODE": "HS1", "FACILITY_NAME": "ROGERS MEMORIAL HOSPITAL MILWAUKEE" }, "geometry": { "type": "Point", "coordinates": [ -88.05132100004424, 43.001286999866338 ] } },
{ "type": "Feature", "properties": { "OBJECTID": 138, "FACILITY_INTERNAL_ID": 144985, "ADDRESS": "3237 S 16th St Fl 5", "ADDRESS_2": null, "CITY": "Milwaukee", "STATE": "WI", "ZIP": 53215, "ZIP_4": 4526, "LAT": 42.985668, "LON": -87.935828, "STATE_FIPS": 55, "COUNTY": "Milwaukee", "COUNTY_FIPS": 55079, "TYPE_DESC": "HOSPITAL SATELLITE LOCATIONS", "SUB_TYPE_DESC": "HOSPITAL SATELLITE LOCATIONS", "WI_LICENSE_NUM": 304, "ASPEN_FACILITY_ID": "HSPSAT011", "MEDICARE_ID": null, "TYPE_CODE": "HS", "FACILITY_TYPE_CODE": "HS1", "FACILITY_NAME": "SELECT SPEC HOSPITAL - ST FRANCIS" }, "geometry": { "type": "Point", "coordinates": [ -87.935827999596725, 42.985668000201827 ] } },
{ "type": "Feature", "properties": { "OBJECTID": 139, "FACILITY_INTERNAL_ID": 146030, "ADDRESS": "1185 N Elm St", "ADDRESS_2": null, "CITY": "Platteville", "STATE": "WI", "ZIP": 53818, "ZIP_4": 1207, "LAT": 42.745453, "LON": -90.479915, "STATE_FIPS": 55, "COUNTY": "Grant", "COUNTY_FIPS": 55043, "TYPE_DESC": "HOSPITAL SATELLITE LOCATIONS", "SUB_TYPE_DESC": "HOSPITAL SATELLITE LOCATIONS", "WI_LICENSE_NUM": 1063, "ASPEN_FACILITY_ID": "HSPSAT13", "MEDICARE_ID": null, "TYPE_CODE": "HS", "FACILITY_TYPE_CODE": "HS1", "FACILITY_NAME": "SOUTHWEST HEALTH CARE BEHAVIORAL SERVICES" }, "geometry": { "type": "Point", "coordinates": [ -90.47991499983226, 42.745452999776596 ] } },
{ "type": "Feature", "properties": { "OBJECTID": 140, "FACILITY_INTERNAL_ID": 144972, "ADDRESS": "8102 Wellness Way", "ADDRESS_2": null, "CITY": "Madison", "STATE": "WI", "ZIP": 53719, "ZIP_4": 8800, "LAT": 43.019226, "LON": -89.52573, "STATE_FIPS": 55, "COUNTY": "Dane", "COUNTY_FIPS": 55025, "TYPE_DESC": "HOSPITAL SATELLITE LOCATIONS", "SUB_TYPE_DESC": "HOSPITAL SATELLITE LOCATIONS", "WI_LICENSE_NUM": 752, "ASPEN_FACILITY_ID": "HSPSAT005", "MEDICARE_ID": null, "TYPE_CODE": "HS", "FACILITY_TYPE_CODE": "HS1", "FACILITY_NAME": "UNITYPOINT HEALTH MERITER CHILD & ADOLESCENT PSYCH" }, "geometry": { "type": "Point", "coordinates": [ -89.52573000003504, 43.019226000067306 ] } },
{ "type": "Feature", "properties": { "OBJECTID": 141, "FACILITY_INTERNAL_ID": 4176, "ADDRESS": "100 County Road B", "ADDRESS_2": null, "CITY": "Shawano", "STATE": "WI", "ZIP": 54166, "ZIP_4": 7072, "LAT": 44.760661, "LON": -88.606604, "STATE_FIPS": 55, "COUNTY": "Shawano", "COUNTY_FIPS": 55115, "TYPE_DESC": "HOSPITAL", "SUB_TYPE_DESC": "CRITICAL ACCESS HOSPITALS", "WI_LICENSE_NUM": 1051, "ASPEN_FACILITY_ID": "HSPLACU86", "MEDICARE_ID": "521346", "TYPE_CODE": "1", "FACILITY_TYPE_CODE": "14", "FACILITY_NAME": "THEDACARE MEDICAL CENTER - SHAWANO INC" }, "geometry": { "type": "Point", "coordinates": [ -88.606603999988877, 44.760661000122191 ] } },
{ "type": "Feature", "properties": { "OBJECTID": 142, "FACILITY_INTERNAL_ID": 593698, "ADDRESS": "2380 Marshall St", "ADDRESS_2": null, "CITY": "Wausau", "STATE": "WI", "ZIP": 54403, "ZIP_4": null, "LAT": 44.932849, "LON": -89.631763, "STATE_FIPS": 55, "COUNTY": "MARATHON COUNTY", "COUNTY_FIPS": 55073, "TYPE_DESC": "HOSPITAL SATELLITE LOCATIONS", "SUB_TYPE_DESC": "HOSPITAL SATELLITE LOCATIONS", "WI_LICENSE_NUM": 326, "ASPEN_FACILITY_ID": "HSPLPSY15", "MEDICARE_ID": null, "TYPE_CODE": "HS", "FACILITY_TYPE_CODE": "HS1", "FACILITY_NAME": "NORTH CENTRAL HEALTH CARE" }, "geometry": { "type": "Point", "coordinates": [ -89.631763000328945, 44.93284899881251 ] } },
{ "type": "Feature", "properties": { "OBJECTID": 143, "FACILITY_INTERNAL_ID": 596078, "ADDRESS": "4805 S Moorland Rd", "ADDRESS_2": null, "CITY": "New Berlin", "STATE": "WI", "ZIP": 53151, "ZIP_4": 7401, "LAT": 42.958212, "LON": -88.10918, "STATE_FIPS": 55, "COUNTY": "Waukesha", "COUNTY_FIPS": 55133, "TYPE_DESC": "HOSPITAL", "SUB_TYPE_DESC": "SHORT TERM", "WI_LICENSE_NUM": 327, "ASPEN_FACILITY_ID": "HSPLACU224", "MEDICARE_ID": "520213", "TYPE_CODE": "01", "FACILITY_TYPE_CODE": "011", "FACILITY_NAME": "FROEDTERT COMMUNITY HOSPITAL" }, "geometry": { "type": "Point", "coordinates": [ -88.109179999884233, 42.95821199888416 ] } },
{ "type": "Feature", "properties": { "OBJECTID": 144, "FACILITY_INTERNAL_ID": 596553, "ADDRESS": "209 Pewaukee Rd", "ADDRESS_2": null, "CITY": "Pewaukee", "STATE": "WI", "ZIP": 53072, "ZIP_4": null, "LAT": 43.08427657, "LON": -88.2257, "STATE_FIPS": 55, "COUNTY": "WAUKESHA COUNTY", "COUNTY_FIPS": 55133, "TYPE_DESC": "HOSPITAL SATELLITE LOCATIONS", "SUB_TYPE_DESC": "HOSPITAL SATELLITE LOCATIONS", "WI_LICENSE_NUM": 328, "ASPEN_FACILITY_ID": "HSPLACU225", "MEDICARE_ID": null, "TYPE_CODE": "HS", "FACILITY_TYPE_CODE": "HS1", "FACILITY_NAME": "FROEDTERT COMMUNITY HOSPITAL" }, "geometry": { "type": "Point", "coordinates": [ -88.225700000178577, 43.084276568956973 ] } },
{ "type": "Feature", "properties": { "OBJECTID": 145, "FACILITY_INTERNAL_ID": 604132, "ADDRESS": "N88w14275 Main Street, Suite 100", "ADDRESS_2": null, "CITY": "Menomonee Falls", "STATE": "WI", "ZIP": 53051, "ZIP_4": 2315, "LAT": 43.17781264, "LON": -88.08770813, "STATE_FIPS": 55, "COUNTY": "WAUKESHA COUNTY", "COUNTY_FIPS": 55133, "TYPE_DESC": "HOSPITAL", "SUB_TYPE_DESC": "SHORT TERM", "WI_LICENSE_NUM": 331, "ASPEN_FACILITY_ID": "HSPLACU226", "MEDICARE_ID": null, "TYPE_CODE": "01", "FACILITY_TYPE_CODE": "011", "FACILITY_NAME": "ASCENSION WISCONSIN HOSP MENOMONEE FALLS CAMPUS" }, "geometry": { "type": "Point", "coordinates": [ -88.087708130196674, 43.177812639027536 ] } },
{ "type": "Feature", "properties": { "OBJECTID": 146, "FACILITY_INTERNAL_ID": 604500, "ADDRESS": "4935 S 76th St Suite 100", "ADDRESS_2": null, "CITY": "Greenfield", "STATE": "WI", "ZIP": 53220, "ZIP_4": 4305, "LAT": 42.955147, "LON": -88.009057, "STATE_FIPS": 55, "COUNTY": "Milwaukee", "COUNTY_FIPS": 55079, "TYPE_DESC": "HOSPITAL SATELLITE LOCATIONS", "SUB_TYPE_DESC": "HOSPITAL SATELLITE LOCATIONS", "WI_LICENSE_NUM": 332, "ASPEN_FACILITY_ID": "HSPSAT021", "MEDICARE_ID": null, "TYPE_CODE": "HS", "FACILITY_TYPE_CODE": "HS1", "FACILITY_NAME": "ASCENSION WISCONSIN HOSPITAL GREENFIELD CAMPUS" }, "geometry": { "type": "Point", "coordinates": [ -88.009056999674883, 42.955146998818165 ] } },
{ "type": "Feature", "properties": { "OBJECTID": 147, "FACILITY_INTERNAL_ID": 605052, "ADDRESS": "2325 Fox Run Blvd, Suite 100", "ADDRESS_2": null, "CITY": "Waukesha", "STATE": "WI", "ZIP": 53188, "ZIP_4": 6602, "LAT": 42.9892724, "LON": -88.26813457, "STATE_FIPS": 55, "COUNTY": "WAUKESHA COUNTY", "COUNTY_FIPS": 55133, "TYPE_DESC": "HOSPITAL SATELLITE LOCATIONS", "SUB_TYPE_DESC": "HOSPITAL SATELLITE LOCATIONS", "WI_LICENSE_NUM": 333, "ASPEN_FACILITY_ID": "HSPSAT023", "MEDICARE_ID": null, "TYPE_CODE": "HS", "FACILITY_TYPE_CODE": "HS1", "FACILITY_NAME": "ASCENSION WISCONSIN HOSPITAL WAUKESHA CAMPUS" }, "geometry": { "type": "Point", "coordinates": [ -88.26813456995913, 42.989272398961269 ] } },
{ "type": "Feature", "properties": { "OBJECTID": 148, "FACILITY_INTERNAL_ID": 606896, "ADDRESS": "13250 Washington Ave", "ADDRESS_2": null, "CITY": "Mount Pleasant", "STATE": "WI", "ZIP": 53177, "ZIP_4": 1516, "LAT": 42.724425, "LON": -87.949306, "STATE_FIPS": 55, "COUNTY": "RACINE COUNTY", "COUNTY_FIPS": 55101, "TYPE_DESC": "HOSPITAL SATELLITE LOCATIONS", "SUB_TYPE_DESC": "HOSPITAL SATELLITE LOCATIONS", "WI_LICENSE_NUM": 335, "ASPEN_FACILITY_ID": "HSPSAT022", "MEDICARE_ID": null, "TYPE_CODE": "HS", "FACILITY_TYPE_CODE": "HS1", "FACILITY_NAME": "AURORA MEDICAL CENTER MOUNT PLEASANT" }, "geometry": { "type": "Point", "coordinates": [ -87.949305999624499, 42.724424999106645 ] } },
{ "type": "Feature", "properties": { "OBJECTID": 149, "FACILITY_INTERNAL_ID": 606935, "ADDRESS": "7901 S 6th St", "ADDRESS_2": null, "CITY": "Oak Creek", "STATE": "WI", "ZIP": 53154, "ZIP_4": 2010, "LAT": 42.90057, "LON": -87.920792, "STATE_FIPS": 55, "COUNTY": "Milwaukee", "COUNTY_FIPS": 55079, "TYPE_DESC": "HOSPITAL SATELLITE LOCATIONS", "SUB_TYPE_DESC": "HOSPITAL SATELLITE LOCATIONS", "WI_LICENSE_NUM": 336, "ASPEN_FACILITY_ID": "HSPSAT024", "MEDICARE_ID": null, "TYPE_CODE": "HS", "FACILITY_TYPE_CODE": "HS1", "FACILITY_NAME": "FROEDTERT COMMUNITY HOSPITAL" }, "geometry": { "type": "Point", "coordinates": [ -87.920792000167765, 42.900569998944327 ] } },
{ "type": "Feature", "properties": { "OBJECTID": 150, "FACILITY_INTERNAL_ID": 607105, "ADDRESS": "240 Maple Ave", "ADDRESS_2": null, "CITY": "Mukwonago", "STATE": "WI", "ZIP": 53149, "ZIP_4": 8475, "LAT": 42.849726, "LON": -88.311991, "STATE_FIPS": 55, "COUNTY": "Waukesha", "COUNTY_FIPS": 55133, "TYPE_DESC": "HOSPITAL SATELLITE LOCATIONS", "SUB_TYPE_DESC": "HOSPITAL SATELLITE LOCATIONS", "WI_LICENSE_NUM": 337, "ASPEN_FACILITY_ID": "HSPSAT025", "MEDICARE_ID": null, "TYPE_CODE": "HS", "FACILITY_TYPE_CODE": "HS1", "FACILITY_NAME": "PROHEALTH WAUKESHA MEMORIAL HOSP-MUKWONAGO CAMPUS" }, "geometry": { "type": "Point", "coordinates": [ -88.311991000357921, 42.849725999301448 ] } },
{ "type": "Feature", "properties": { "OBJECTID": 151, "FACILITY_INTERNAL_ID": 607276, "ADDRESS": "11421 N Port Washington Rd", "ADDRESS_2": null, "CITY": "Mequon", "STATE": "WI", "ZIP": 53092, "ZIP_4": 3413, "LAT": 43.2259262, "LON": -87.9246132, "STATE_FIPS": 55, "COUNTY": "Ozaukee", "COUNTY_FIPS": 55089, "TYPE_DESC": "HOSPITAL SATELLITE LOCATIONS", "SUB_TYPE_DESC": "HOSPITAL SATELLITE LOCATIONS", "WI_LICENSE_NUM": 338, "ASPEN_FACILITY_ID": "HSPSAT026", "MEDICARE_ID": "<Null>", "TYPE_CODE": "HS", "FACILITY_TYPE_CODE": "HS1", "FACILITY_NAME": "FROEDTERT COMMUNITY HOSPITAL" }, "geometry": { "type": "Point", "coordinates": [ -87.924613199824464, 43.225926200196582 ] } },
{ "type": "Feature", "properties": { "OBJECTID": 152, "FACILITY_INTERNAL_ID": 609422, "ADDRESS": "4100 State Highway 66", "ADDRESS_2": null, "CITY": "Stevens Point", "STATE": "WI", "ZIP": 54482, "ZIP_4": 8410, "LAT": 44.544032, "LON": -89.547501, "STATE_FIPS": 55, "COUNTY": "Portage", "COUNTY_FIPS": 55097, "TYPE_DESC": "HOSPITAL", "SUB_TYPE_DESC": "SHORT TERM", "WI_LICENSE_NUM": 340, "ASPEN_FACILITY_ID": "HSPLACU227", "MEDICARE_ID": "<Null>", "TYPE_CODE": "1", "FACILITY_TYPE_CODE": "11", "FACILITY_NAME": "MARSHFIELD MEDICAL CENTER - RIVER REGION" }, "geometry": { "type": "Point", "coordinates": [ -89.547500999729095, 44.54403200015259 ] } },
{ "type": "Feature", "properties": { "OBJECTID": 153, "FACILITY_INTERNAL_ID": 611921, "ADDRESS": "2400 E Capitol Dr", "ADDRESS_2": null, "CITY": "Appleton", "STATE": "WI", "ZIP": 54911, "ZIP_4": 8728, "LAT": 44.296177, "LON": -88.36628, "STATE_FIPS": 55, "COUNTY": "Outagamie", "COUNTY_FIPS": 55087, "TYPE_DESC": "HOSPITAL SATELLITE LOCATIONS", "SUB_TYPE_DESC": "HOSPITAL SATELLITE LOCATIONS", "WI_LICENSE_NUM": 342, "ASPEN_FACILITY_ID": "HSPSAT027", "MEDICARE_ID": null, "TYPE_CODE": "HS", "FACILITY_TYPE_CODE": "HS1", "FACILITY_NAME": "THEDACARE MEDICAL CENTER-ORTHOPEDIC SPINE AND PAIN" }, "geometry": { "type": "Point", "coordinates": [ -88.366280000037392, 44.296177000023491 ] } },
{ "type": "Feature", "properties": { "OBJECTID": 154, "FACILITY_INTERNAL_ID": 612366, "ADDRESS": "10000 W Bluemound Rd", "ADDRESS_2": null, "CITY": "Wauwatosa", "STATE": "WI", "ZIP": 53226, "ZIP_4": 4321, "LAT": 43.036791, "LON": -88.037312, "STATE_FIPS": 55, "COUNTY": "Milwaukee", "COUNTY_FIPS": 55079, "TYPE_DESC": "HOSPITAL SATELLITE LOCATIONS", "SUB_TYPE_DESC": "HOSPITAL SATELLITE LOCATIONS", "WI_LICENSE_NUM": 343, "ASPEN_FACILITY_ID": "HSPLRHB004", "MEDICARE_ID": null, "TYPE_CODE": "HS", "FACILITY_TYPE_CODE": "HS1", "FACILITY_NAME": "FROEDTERT BLUEMOUND REHABILITATION HOSPITAL" }, "geometry": { "type": "Point", "coordinates": [ -88.03731199956384, 43.036791000326126 ] } }
]
}
